idx,srcType,factoryName,area1,area2,area3,address,Latitude,Longitude,Product,yearPermitted,yearClosed,Remarks
1050,mine,이화석면,강원,영월군,영월읍,강원 영월군 영월읍 팔괴리 산314,37.1477636,128.4917911,,1985,1985,
1051,mine,애국,강원,영월시,,강원 영월시,37.860367,128.311526,,1941,1945,
1052,mine,감봉리,강원,철원군,근북면,강원 철원군 근북면,38.315418,127.4025464,,0,0,
1053,mine,웅봉광산,강원,춘천시,북산면,강원 춘천시 북산면 조교리 산1-35,37.9383255,127.954976,,1971,1971,
1054,mine,가평광산,경기,가평군,설악면,경기 가평군 설악면 위곡리 산 178-1,37.669206,127.5189841,,1963,1966,
1055,mine,명진광산,경기,가평군,설악면,경기 가평군 설악면 위곡리 산 31-1,37.6703817,127.5348893,,1979,1983,
1056,mine,위곡리,경기,가평군,설악면,경기 가평군 설악면 위곡리 산 124,37.677705,127.534679,,0,0,
1057,mine,한국광산,경기,가평군,설악면,경기 가평군 설악면 위영리,37.6762513,127.4946879,,0,0,
1058,mine,현덕광산,경기,평택시,현덕면,경기 평택시 현덕면 도대리 산39-11임,36.9513409,126.9084482,,0,0,
1059,mine,대광광산,경북,봉화군,석포면,경북 봉화군 석포면,37.0486623,129.0651481,,0,0,
1060,mine,안동광산,경북,안동시,풍천면,경북 안동시 풍천면,36.556208,128.50645,,0,0,
1061,mine,풍천광산,경북,안동시,풍천면,경북 안동시 풍천면,36.556208,128.50645,,0,0,
1062,mine,봉현광산,경북,영주시,봉현면,경북 영주시 봉현면 두산리 산21,36.872643,128.5083841,,1978,1983,
1063,mine,동사리석면,경북,예천군,하리면,경북 예천군 하리면 동사리 산2-1,36.7803707,128.4588532,,0,0,
1064,mine,대흥울진,경북,울진군,울진읍,경북 울진군 울진읍 대흥리 산55,36.9760935,129.3236617,,1984,1984,
1065,mine,겸백광산,전남,보성군,겸백면,전남 보성군 겸백면 사곡리 산17,34.8124094,127.1724524,,1974,1974,
1066,mine,율어광산,전남,보성군,율어면,전남 보성군 율어면 장동리 산62,34.8644228,127.2137232,,1969,1969,
1067,mine,중앙1광산,충남,보령군,오천면,충남 보령군 오천면 중앙1광산,36.617338,126.845397,,1980,1992,
1068,mine,진죽광산,충남,보령군,청소면,충남 보령군 청소면,36.617338,126.845397,,1963,1966,
1069,mine,보령석면,충남,보령시,오천면,충남 보령시 오천면,36.4383101,126.5224079,,1971,1975,
1070,mine,보원 2석면,충남,보령시,오천면,충남 보령시 오천면 갈현리 산11-7일원,36.4272375,126.5593326,,0,0,
1071,mine,대보,충남,보령시,오천면,충남 보령시 오천면 교성리 산65-1,36.4323322,126.5561593,,0,0,
1072,mine,신석석면,충남,보령시,오천면,충남 보령시 오천면 교성리 58-8일원,36.42181,126.54124,,2001,2006,
1073,mine,보덕석면,충남,보령시,청소면,충남 보령시 청소면 성연리 산472-3,36.4412833,126.634888,,1977,1977,
1074,mine,보령석면,충남,보령시,청소면,충남 보령시 청소면 정전리 산73,36.4342871,126.6150925,,1987,1987,
1075,mine,재정석면,충남,보령시,청소면,충남 보령시 청소면 재정리 산31,36.4512696,126.6186063,,0,0,
1076,mine,보원 1석면,충남,보령시,청소면,충남 보령시 청소면,36.44546,126.589538,,1971,1984,
1077,mine,광도,충남,서산군,,충남 서산군,36.617338,126.845397,,1941,1945,
1078,mine,아진광산,충남,서산군,근흥면,충남 서산군 근흥면 아진광산,36.617338,126.845397,,0,0,
1079,mine,서창광산,충남,서산군,이북면,충남 서산군 이북면 ,36.617338,126.845397,,0,0,
1080,mine,광천서산,충남,서산시,대산읍,충남 서산시 대산읍 대로리 881-66,36.9305438,126.3917947,,1941,1945,
1081,mine,대천리광산,충남,예산군,고덕면,충남 예산군 고덕면 몽곡리 산32-4,36.765808,126.7089985,,0,0,
1082,mine,흥동,충남,예산군,광시면,충남 예산군 광시면 미곡리 산17,36.5653009,126.8006295,,1978,1978,
1083,mine,응봉예산,충남,예산군,응봉면,충남 예산군 응봉면 지석리 65-6,36.6444768,126.7644777,,1974,1979,
1084,mine,구봉석면,충남,청양군,남양면,충남 청양군 남양면 흥산리 산 17-1,36.3743251,126.7404521,,1974,1974,
1085,mine,비봉광산,충남,청양군,비봉면,충남 청양군 비봉면 강정리 112-6,36.5120955,126.7777271,,1981,1981,
1086,mine,양사,충남,청양군,비봉면,충남 청양군 비봉면 양사리 산11-1,36.502969,126.7724683,,0,0,
1087,mine,신덕석면,충남,태안군,소원면,충남 태안군 소원면 신덕리 산148-1,36.7587158,126.1999873,,1979,1986,
1088,mine,영진광산,충남,태안군,원북면,충남 태안군 원북면 청산리 370-6,36.8115732,126.2649884,,1989,1989,
1089,mine,청산리석면,충남,태안군,원북면,충남 태안군 원북면 청산리 70-3,36.8297378,126.3029189,,0,0,
1090,mine,백토,충남,홍성군,광천면,충남 홍성군 광천면 백토,36.601324,126.660775,,1941,1969,
1091,mine,경남광산,충남,홍성군,광천읍,충남 홍성군 광천읍 경남광산(상정리에서 남쪽으로 약 1.2km 지점에 위치한다, 한국의 광상제3호, p321),36.5045591,126.6248597,,1975,1975,
1092,mine,일봉광산,충남,홍성군,광천읍,충남 홍성군 광천읍 신진리 일봉광산,36.5119875,126.6238574,,1944,1944,
1093,mine,광천1광산,충남,홍성군,광천읍,충남 홍성군 광천읍 상정리,36.5231249,126.6102078,,1938,1986,
1094,mine,매현리광산,충남,홍성군,광천읍,충남 홍성군 광천읍 매현리 산87-1,36.5216134,126.6255465,,0,0,
1095,mine,월림광산,충남,홍성군,광천읍,충남 홍성군 광천읍 월림리 산38-1, 산98-1,36.5298986,126.6525584,,0,0,
1096,mine,대흥홍동,충남,홍성군,구항면,충남 홍성군 구항면 신곡리 산13-3,36.5423128,126.6427182,,1971,1971,
1097,mine,신곡리,충남,홍성군,구항면,충남 홍성군 구항면 신곡리 산13-3,36.5426051,126.6423941,,0,0,
1098,mine,홍성광산,충남,홍성군,구항면,충남 홍성군 구항면 청광리 산109-20,36.5603268,126.6351304,,1935,1992,
1099,mine,동양광산,충남,홍성군,홍동면,충남 홍성군 홍동면 동양광산,36.559083,126.688063,,0,0,
1100,mine,월림석면,충남,홍성군,홍동면,충남 홍성군 홍동면,36.559083,126.688063,,1972,1974,
1101,mine,홍동개월,충남,홍성군,홍동면,충남 홍성군 월현리 167-2,36.5486707,126.6770552,,1974,1974,
1102,mine,홍동백동,충남,홍성군,홍동면,충남 홍성군 홍동면 금당리 223-4,36.5583109,126.7327671,,1972,1973,
1103,mine,신성광산,충남,홍성군,홍성읍,충남 홍성군 홍성읍 신성리 산12-1,36.5587813,126.6776111,,0,0,
1104,mine,충남석면,충남,홍성군,홍성읍,충남 홍성군 홍성읍 송월리 244-1,36.5745777,126.6776759,,1973,1974,
1105,mine,남아석면,충북,제천군,,충북 제천군,36.785372,127.65514,,1941,1945,
1106,mine,덕수,충북,제천시,,충북 제천시,37.1326438,128.1910398,,1941,1945,
1107,mine,선왕제천,충북,제천시,,충북 제천시,37.1326438,128.1910398,,1941,1945,
1108,mine,수산,충북,제천시,,충북 제천시,37.1326438,128.1910398,,1941,1945,
1109,mine,일출충북,충북,제천시,,충북 제천시,37.1326438,128.1910398,,1941,1945,
1110,mine,신선광산,충북,제천시,송학면,충북 제천시 송학면 송학리 산15,37.184943,128.261,,1973,1976,
1111,mine,동아광산,충북,제천시,수산면,충북 제천시 수산면 구곡리 산17,36.9436466,128.1891941,,1941,1945,
1112,mine,대화,충북,충주시,,충북 충주시,36.991105,127.9260146,,1941,1945,
1113,mine,대한석면공업사,충남,홍성군,구항면,충남 홍성군 구항면 청광리,36.558425,126.6411875,,1958,1972,
1114,mine,광천석면광산,충남,홍성군,광천읍,충남 홍성군 광천읍 상정리,36.5115,126.6126375,,1940,1986,
1115,mine,광천역,충남,홍성군,광천읍,충남 홍성군 광천읍 신진리,36.5108083,126.623675,,1967,1999,
1116,mine,홍성광산,충남,홍성군,구항면,충남 홍성군 구항면 청광리,36.558425,126.6411875,,1957,1967,
1117,mine,화양역,충남,홍성군,금마면,충남 홍성군 금마면 화양리,36.6286,126.7143,,0,0,
1118,mine,대판석면,충남,홍성군,홍동면,충남 홍성군 홍동면 월현리,36.5502,126.6733875,,1944,1945,
1119,mine,동보석분,경기,포천, 영북,경기도 포천시 영북면 야기2리 광산골(쇠골),38.0889164,127.2752905,,1980,1999,
1120,mine,대보석면제분장,충남,보령군,오천면,충남 보령군 오천면 교성리, 주포면 마강리, 청소면,36.617338,126.845397,,1960,1992,
1121,mine,웅포석면공장,충남,보령군,오천면,충남 보령군 오천면 교성리,36.617338,126.845397,,1973,1976,
1122,mine,주포역,충남,보령군,주포면,충남 보령군 주포면 봉당리,36.617338,126.845397,,1970,1975,
1123,mine,석면(흑연)공장,충남,보령군,청소면,충남 보령군 청소면 진죽리,36.617338,126.845397,,1968,1975,
1124,mine,죽림광업소,충남,보령군,청소면,충남 보령군 청소면 죽심리,36.617338,126.845397,,1965,1975,
1125,mine,중앙파우텍,충남,보령군,청소면,충남 보령군 청소면 야현리,36.617338,126.845397,,1965,1994,
1126,mine,한국석면공장,충남,보령군,청소면,충남 보령군 청소면 야현리,36.617338,126.845397,,1959,1983,
1127,mine,정전석면가공공장,충남,보령군,청소면,충남 보령군 청소면 정전이,36.617338,126.845397,,1973,1974,
1128,mine,구봉석면광업소,충남,청양군,남양면,충남 청양군 남양면 구룡리,36.4078154,126.76295,,1957,1965,
1129,mine,청호환경(비봉석면광산),충남,청양군,비봉면,충남 청양군 비봉면 강정리,36.514025,126.774675,,1968,1978,
1130,mfac,대한석면공업사,충남,홍성군,구항면,충남 홍성군 구항면 청광리,36.558425,126.6411875,,1958,1972,
1131,mfac,광천석면광산,충남,홍성군,광천읍,충남 홍성군 광천읍 상정리,36.5115,126.6126375,,1940,1986,
1132,mfac,광천역,충남,홍성군,광천읍,충남 홍성군 광천읍 신진리,36.5108083,126.623675,,1967,1999,
1133,mfac,홍성광산,충남,홍성군,구항면,충남 홍성군 구항면 청광리,36.558425,126.6411875,,1957,1967,
1134,mfac,화양역,충남,홍성군,금마면,충남 홍성군 금마면 화양리,36.6286,126.7143,,0,0,
1135,mfac,대판석면,충남,홍성군,홍동면,충남 홍성군 홍동면 월현리,36.5502,126.6733875,,1944,1945,
1136,mfac,동보석분,경기,포천, 영북,경기도 포천시 영북면 야기2리 광산골(쇠골),38.0889164,127.2752905,,1980,1999,
1137,mfac,대보석면제분장,충남,보령군,오천면,충남 보령군 오천면 교성리, 주포면 마강리, 청소면,36.617338,126.845397,,1960,1992,
1138,mfac,웅포석면공장,충남,보령군,오천면,충남 보령군 오천면 교성리,36.617338,126.845397,,1973,1976,
1139,mfac,주포역,충남,보령군,주포면,충남 보령군 주포면 봉당리,36.617338,126.845397,,1970,1975,
1140,mfac,석면(흑연)공장,충남,보령군,청소면,충남 보령군 청소면 진죽리,36.617338,126.845397,,1968,1975,
1141,mfac,죽림광업소,충남,보령군,청소면,충남 보령군 청소면 죽심리,36.617338,126.845397,,1965,1975,
1142,mfac,중앙파우텍,충남,보령군,청소면,충남 보령군 청소면 야현리,36.617338,126.845397,,1965,1994,
1143,mfac,한국석면공장,충남,보령군,청소면,충남 보령군 청소면 야현리,36.617338,126.845397,,1959,1983,
1144,mfac,정전석면가공공장,충남,보령군,청소면,충남 보령군 청소면 정전이,36.617338,126.845397,,1973,1974,
1145,mfac,구봉석면광업소,충남,청양군,남양면,충남 청양군 남양면 구룡리,36.4078154,126.76295,,1957,1965,
1146,mfac,청호환경(비봉석면광산),충남,청양군,비봉면,충남 청양군 비봉면 강정리,36.514025,126.774675,,1968,1978,
1147,repa,보고,강원,삼척,근덕,강원 삼척시 근덕면 동막리 790-3 농공단지 1블럭,37.3355522,129.2314759,,0,0,
1148,repa,칠성조선소,강원,속초,교동,강원 속초시 교동 664-110,38.1983542,128.5836822,,0,0,
1149,repa,대창조선공업사,강원,속초,조양,강원속초시조양동1034-24 ,38.1913246,128.5925224,,0,0,
1150,repa,서울중공업,강원,원주,문막,강원 원주시 문막읍 후용리 821,37.2752492,127.7945138,,0,0,
1151,repa,한양마린산업,강원,춘천,남산,강원 춘천시 남산면 창촌리 300-8(창촌농공단지),37.7839665,127.640382,,0,0,
1152,repa,태흥건설산업(주),경기,성남,분당,경기 성남시 분당구 구미동?로드랜드 이지타워 ..,37.3828195,127.1189255,,0,0,
1153,repa,시흥조선,경기,시흥,월곶,경기 시흥시 월곶동 1017-3,37.3850247,126.7414085,,0,0,
1154,repa,에이원마린테크,경기,양평,양평,경기 양평군 양평읍 덕평리 44번지,37.5036249,127.4993124,,0,0,
1155,repa,동민기업,경남,거제,아주,경남 거제시 아주동 1 대우조선해양(주),34.8722114,128.6957017,,0,0,
1156,repa,성우,경남,거제,아주,경남 거제시 아주동 1,34.8722114,128.6957017,,0,0,
1157,repa,제일산업,경남,거제,아주,경남 거제시 아주동 1 대우조선해양(주),34.8722114,128.6957017,,0,0,
1158,repa,태일기업,경남,거제,아주,경남 거제시 아주동 1,34.8722114,128.6957017,,0,0,
1159,repa,대성기업,경남,거제,연초,경남 거제시 연초면 한내리 777,34.9410132,128.5959793,,0,0,
1160,repa,한림정공,경남,거제,연초,경남 거제시 연초면 죽토리 382-8,34.9110812,128.6592162,,0,0,
1161,repa,거성산업,경남,거제,장평,경남 거제시 장평동 530,34.8998142,128.6024892,,0,0,
1162,repa,거진산업,경남,거제,장평,경남 거제시 장평동 530 (주)삼성중공업내,34.8998142,128.6024892,,0,0,
1163,repa,고당기업,경남,거제,장평,경남 거제시 장평동 530 (주)삼성중공업내,34.8998142,128.6024892,,0,0,
1164,repa,구룡기업사,경남,거제,장평,경남 거제시 장평동 530,34.8998142,128.6024892,,0,0,
1165,repa,대영기업,경남,거제,장평,경남 거제시 장평동 530 삼성중공업,34.8998142,128.6024892,,0,0,
1166,repa,상생기업,경남,거제,장평,경남 거제시 장평동 530 (주)삼성중공업,34.8998142,128.6024892,,0,0,
1167,repa,세진기업,경남,거제,장평,경남 거제시 장평동 530 (주)삼성중공업,34.8998142,128.6024892,,0,0,
1168,repa,영욱기업,경남,거제,장평,경남 거제시 장평동 530 (주)삼성중공업,34.8998142,128.6024892,,0,0,
1169,repa,용주산업,경남,거제,장평,경남 거제시 장평동 530,34.8998142,128.6024892,,0,0,
1170,repa,정석기업,경남,거제,장평,경남 거제시 장평동 530 삼성중공업,34.8998142,128.6024892,,0,0,
1171,repa,창일기업,경남,거제,장평,경남 거제시 장평동 530 (주)삼성중공업,34.8998142,128.6024892,,0,0,
1172,repa,태기산업,경남,거제,장평,경남 거제시 장평동 530 (주)삼성중공업내,34.8998142,128.6024892,,0,0,
1173,repa,태원기업,경남,거제,장평,경남 거제시 장평동 530,34.8998142,128.6024892,,0,0,
1174,repa,티에스이,경남,거제,장평,경남 거제시 장평동 530 삼성중공업내,34.8998142,128.6024892,,0,0,
1175,repa,월드중공업,경남,고성,고성,경남 고성군 고성읍 우산리 92-2,35.0046398,128.3366127,,0,0,
1176,repa,삼호조선해양,경남,고성,동해,경남 고성군 동해면 용정리 278-1,35.0277721,128.4832831,,0,0,
1177,repa,지오고성조선,경남,고성,동해,경남 고성군 동해면 장좌리 77,34.9947839,128.4741765,,0,0,
1178,repa,스코트라,경남,김해,삼정,경남 김해시 삼정동 661-14 화성빌딩 4층,35.2282476,128.8996025,,0,0,
1179,repa,우남마린,경남,김해,상동,경남김해시상동면매리693 ,35.3070381,128.95374,,0,0,
1180,repa,대원기계(주),경남,김해,생림,경남 김해시 생림면 나전리?665,35.32815,128.849138,,0,0,
1181,repa,비씨태창산업(유),경남,김해,안동,경남 김해시 안동?402-7,35.2285766,128.8893277,,0,0,
1182,repa,창남조선,경남,남해,창선,경남 남해군 창선면 대벽리 39-17,34.9139755,128.0304228,,0,0,
1183,repa,타코마,경남,마산,   ,경남 마산시,35.2209315,128.5797119,,0,0,
1184,repa,세양마리녹스,경남,마산,진전,경남 마산시 진전면 율티리 147번지,35.109179,128.4594039,,0,0,
1185,repa,구복조선소,경남,마산,합포,경남 마산시 합포구 구산면 구복리 273,35.2209315,128.5797119,,0,0,
1186,repa,전진조선소,경남,마산,합포,경남 마산시 합포구 진동면 고현리 99-1,35.2209315,128.5797119,,0,0,
1187,repa,제일조선소,경남,사천,대방,경남 사천시 대방동 308-2,34.9296194,128.0544473,,0,0,
1188,repa,해진,경남,사천,사남,경남 사천시 사남면 방지리 735,35.0625283,128.0462912,,0,0,
1189,repa,에이치케이조선,경남,사천,사등,경남 사천시 사등동 236,34.9259921,128.1025463,,0,0,
1190,repa,삼선조선소,경남,사천,서금,경남 사천시 서금동 112-3,34.923479,128.0740187,,0,0,
1191,repa,한남조선,경남,사천,송포,경남 사천시 송포동 1539-2,34.9742859,128.0513499,,0,0,
1192,repa,신흥조선소,경남,진해,대죽,경남 진해시 대죽동 1-1,35.1387188,128.6727151,,0,0,
1193,repa,금오자원개발,경남,창녕,영산,경남 창녕군 영산면 신제리 62,35.4416986,128.5097547,,0,0,
1194,repa,건창,경남,창원,진해,경남 창원시 진해구 원포동 100 STX조선내,35.109615,128.7160879,,0,0,
1195,repa,신진냉동배관,경남,창원,진해,경남 창원시 진해구 원포동 100,35.109615,128.7160879,,0,0,
1196,repa,중앙기업,경남,창원,진해,경남 창원시 진해구 원포동 100,35.109615,128.7160879,,0,0,
1197,repa,진해중공업,경남,창원,진해,경남 창원시 진해구 대죽동 2,35.1381154,128.6728009,,0,0,
1198,repa,태일정공,경남,창원,진해,경남 창원시 진해구 명동 575-1 오리엔탈정공내,35.1015191,128.7159927,,0,0,
1199,repa,부영개발,경남,통영,광도,경남 통영시 광도면 황리 836-1,34.9579414,128.4177346,,0,0,
1200,repa,부원이엔지,경남,통영,광도,경남 통영시 광도면 황리 1609-2,34.9560717,128.4248693,,0,0,
1201,repa,한성FRP조선소,경남,통영,광도,경남 통영시 광도면 덕포리 404-2,34.9164152,128.4249264,,0,0,
1202,repa,월드이엔지,경남,통영,도남,경남 통영시 도남동 205-1,34.8285896,128.4316174,,0,0,
1203,repa,선우조선,경남,통영,미수,경남 통영시 미수1동 855,34.85439,128.433112,,0,0,
1204,repa,21세기,경남,통영,봉평,경남 통영시 봉평동 13-1,34.8325428,128.4220996,,0,0,
1205,repa,경남조선소,경남,통영,봉평,경남 통영시 봉평동 13-1,34.8325428,128.4220996,,0,0,
1206,repa,동원조선소,경남,통영,봉평,경남 통영시 봉평동 13-1,34.8325428,128.4220996,,0,0,
1207,repa,삼양조선소,경남,통영,봉평,경남 통영시 봉평동 13-1,34.8325428,128.4220996,,0,0,
1208,repa,송오조선소,경남,통영,봉평,경남 통영시 봉평동 27-5,34.8342318,128.4178291,,0,0,
1209,repa,삼덕조선소,경남,통영,산양,경남 통영시 산양읍 삼덕리 500,34.7983878,128.3834119,,0,0,
1210,repa,함안중공업,경남,함안,군북,경남 함안군 군북면 소포리 35-2,35.2777028,128.3605762,,0,0,
1211,repa,유일,경남,함안,산인,경남 함안군 산인면 신산리 662-1,35.2662796,128.479016,,0,0,
1212,repa,동성조선,경북,포항,남구,경북 포항시 남구 송도동 253-2,36.0441702,129.3735376,,0,0,
1213,repa,신아선기,경북,포항,남구,경북 포항시 남구 송도동?253-72,36.0083432,129.3593368,,0,0,
1214,repa,씨그린선박설비,경북,포항,남구,경북 포항시 남구 청림동?1-62,36.0083432,129.3593368,,0,0,
1215,repa,한동조선,경북,포항,남구,경북 포항시 남구 송도동 253-1,36.0451824,129.3737305,,0,0,
1216,repa,한일뉴즈,경북,포항,남구,경북 포항시 남구 동해면 상정리 72번지,35.9836333,129.5017451,,0,0,
1217,repa,해주선박공업사,경북,포항,북구,경북 포항시 북구 동빈동2가?120-4번지,36.041867,129.365688,,0,0,
1218,repa,대성공업사,부산,강서,대저,부산시 강서구 대저2동?1260-2,35.2122179,128.98045,,0,0,
1219,repa,원진조선,부산,강서,명지,부산 강서구 명지동 1457-8,35.1047523,128.9299616,,0,0,
1220,repa,케이티엠프로덕트,부산,강서,명지,부산 강서구 명지동 3178-7,35.1149924,128.9255509,,0,0,
1221,repa,㈜DSEC,부산,강서,성북,부산강서구성북동1490 ,35.0846984,128.8319214,,0,0,
1222,repa,(주)동화엔텍,부산,강서,송정,부산 강서구 송정동?1575-6,35.2122179,128.98045,,0,0,
1223,repa,(주)마린테크니칼엔지니어링,부산,강서,송정,부산 강서구 송정동?1565-9,35.2122179,128.98045,,0,0,
1224,repa,광동FRP산업,부산,강서,송정,부산 강서구 송정동 1460-4, 녹산공단 2B-2L,35.0997073,128.8260888,,0,0,
1225,repa,반도마린,부산,강서,송정,부산 강서구 송정동 1762-9,35.0838914,128.8516853,,0,0,
1226,repa,부산카플링,부산,강서,송정,부산 강서구 송정동 1753-1,35.0929717,128.8273529,,0,0,
1227,repa,유니콜,부산,강서,송정,부산 강서구 송정동 1724-14,35.0847997,128.8478271,,0,0,
1228,repa,해동비철금속(주),부산,강서,송정,부산 강서구 송정동 1760-8,35.0838628,128.8452156,,0,0,
1229,repa,현대삼호중공업,부산,강서,송정,부산 강서구 송정동 1540-2,35.0990685,128.8408103,,0,0,
1230,repa,화진기업,부산,강서,송정,부산시 강서구 송정동?1573-10,35.2122179,128.98045,,0,0,
1231,repa,광산,부산,강서,지사,부산광역시 강서구 지사동 1173-2,35.148775,128.8123177,,0,0,
1232,repa,윌헴슨쉽스서비스,부산,기장,정관,부산 기장군 정관면 달산리?44-27 번지,35.325545,129.1803123,,0,0,
1233,repa,(주)비전테크닉스,부산,남구,대연,부산시 남구 대연동 965-10?,35.1271697,129.0923701,,0,0,
1234,repa,DDS,부산,남구,용호,부산 남구 용호동?423-2(1층),35.136649,129.084175,,0,0,
1235,repa,(주)글로발코리아,부산,동구,초량,부산시 동구 초량동?1147-14(국제..,35.1292469,129.045431,,0,0,
1236,repa,(주)두남,부산,동구,초량,부산 동구 초량3동 1196-5,35.1170646,129.042392,,0,0,
1237,repa,(주)리인터내셔날,부산,동구,초량,부산시 동구 초량동?1212-22(대창..,35.1292469,129.045431,,0,0,
1238,repa,(주)에리단쉬핑,부산,동구,초량,부산 동구 초량동?1056-2 한국전..,35.1292469,129.045431,,0,0,
1239,repa,(주)트랜스마린,부산,동구,초량,부산시 동구 초량동?1212-11(해덕..,35.1292469,129.045431,,0,0,
1240,repa,ECIS Co.,LTD,부산,동구,초량,부산 동구 초량동?1203-2 중후제..,35.1292469,129.045431,,0,0,
1241,repa,JAEUN,부산,동구,초량,부산시 동구 초량동 ?1053-3 남도빌..,35.113957,129.03695,,0,0,
1242,repa,네오텍,부산,동구,초량,부산 동구 초량3동?11194-10 대..,35.1292469,129.045431,,0,0,
1243,repa,동주선박(주),부산,동구,초량,부산시 동구 초량동?1213-8(삼성빌..,35.1292469,129.045431,,0,0,
1244,repa,마리테크(주),부산,동구,초량,부산 동구 초량동 1203-10?오피스텔 프레지던트..,35.1130456,129.0404836,,0,0,
1245,repa,마스텍중공업,부산,동구,초량,부산동구초량3동1159-10 ,35.1228694,129.0447322,,0,0,
1246,repa,이시스,부산,동구,초량,부산 동구 초량1동?11,35.1292469,129.045431,,0,0,
1247,repa,이씨스,부산,동구,초량,부산 동구 초량2동?111,35.1292469,129.045431,,0,0,
1248,repa,㈜토스코,부산,동구,초량,부산 동구 초량3동?1200-1 동남빌..,35.1292469,129.045431,,0,0,
1249,repa,테스트,부산,동구,초량,부산 동구 초량1동?111-99,35.1292469,129.045431,,0,0,
1250,repa,(주)아이씨에스시스템,부산,부산,부암,부산 부산진구 부암동?297-1,35.162874,129.053137,,0,0,
1251,repa,동화전기공업(주),부산,북구,구포,부산시 북구 구포2동?1121-2,35.197185,128.990438,,0,0,
1252,repa,대일중전기,부산,사상,감전,부산 사상구 감전동?551-25,35.152624,128.99125,,0,0,
1253,repa,부광엔지니어링,부산,사상,감전,부산시 사상구 감전동?953-26,35.152624,128.99125,,0,0,
1254,repa,㈜케이티엠에스,부산,사상,감전,부산 사상구 감전동?133-4,35.152624,128.99125,,0,0,
1255,repa,해동산업,부산,사상,감전,부산 사상구 감전동?504-17,35.152624,128.99125,,0,0,
1256,repa,KBC 엔지니어링,부산,사상,괘법,부산 사상구 괘법동?563-3,35.152624,128.99125,,0,0,
1257,repa,보성산업,부산,사상,괘법,부산 사상구 괘법동?570-8번지 보성..,35.152624,128.99125,,0,0,
1258,repa,동양수산기계(주),부산,사상,학장,부산시 사상구 학장동?237-13,35.152624,128.99125,,0,0,
1259,repa,(주)엔피알티,부산,사하,감천,부산 사하구 감천동?774-3,35.1045772,128.974817,,0,0,
1260,repa,동양아연금속공업사,부산,사하,감천,부산시 사하구 감천동?707-6(26/1..,35.1045772,128.974817,,0,0,
1261,repa,동일조선(주),부산,사하,감천,부산 사하구 감천동 391-1,35.0852459,129.0051734,,0,0,
1262,repa,동일조선공업(주),부산,사하,감천,부산 사하구 감천동 405-11,35.0857737,129.0045354,,0,0,
1263,repa,동일해운,부산,사하,감천,부산 사하구 감천1동 391-1,35.0852459,129.0051734,,0,0,
1264,repa,만물조선,부산,사하,감천,부산시 사하구 감천1동?213(6/1),35.1045772,128.974817,,0,0,
1265,repa,수양조선소,부산,사하,감천,부산 사하구 감천2동 551-5,35.0905399,129.0057728,,0,0,
1266,repa,킴스마린서비스(주),부산,사하,감천,부산시 사하구 감천동?405-11,35.1045772,128.974817,,0,0,
1267,repa,동광선박공업사,부산,사하,괴정,부산 사하구 괴정 3동 477-33,35.0958533,128.9941155,,0,0,
1268,repa,(주)디에이치이,부산,사하,구평,부산시 사하구 구평동?248,35.1045772,128.974817,,0,0,
1269,repa,(주)민경수산,부산,사하,구평,부산시 사하구 구평동?479-5,35.1045772,128.974817,,0,0,
1270,repa,(주)오리엔트조선,부산,사하,구평,부산 사하구 구평동?495-31,35.1045772,128.974817,,0,0,
1271,repa,(주)케이티엠,부산,사하,구평,부산 사하구 구평동?478-3,35.1045772,128.974817,,0,0,
1272,repa,(주)포코엔지니어링,부산,사하,구평,부산 사하구 구평동 495-6,35.0570162,128.9972714,,0,0,
1273,repa,강남조선,부산,사하,구평,부산 사하구 구평동 399,35.0723361,128.9916737,,0,0,
1274,repa,고토기술,부산,사하,구평,부산 사하구 구평동 402-20,35.0710852,128.9915878,,0,0,
1275,repa,남해발전기,부산,사하,구평,부산시 사하구 구평동 ?487-3,35.081925,128.987775,,0,0,
1276,repa,대경마린엔지니어링,부산,사하,구평,부산 사하구 구평동 402-43,35.0708599,128.9913513,,0,0,
1277,repa,대명마린(주),부산,사하,구평,부산 사하구 구평동?368-1,35.1045772,128.974817,,0,0,
1278,repa,대평조선소,부산,사하,구평,부산 사하구 구평동 495-17,35.0505985,128.9997644,,0,0,
1279,repa,동경기전플랜트,부산,사하,구평,부산 사하구 구평동 478-3,35.0544649,128.9968916,,0,0,
1280,repa,동해조선,부산,사하,구평,부산 사하구 구평동 495-11,35.0549789,128.9980599,,0,0,
1281,repa,부성산업,부산,사하,구평,부산시 사하구 구평동?491-4,35.1045772,128.974817,,0,0,
1282,repa,삼우티이에스(주),부산,사하,구평,부산 사하구 구평동 402-42,35.0708765,128.9915617,,0,0,
1283,repa,상일전업사,부산,사하,구평,부산시 사하구 구평동 ?485번지,35.081925,128.987775,,0,0,
1284,repa,선보유니텍(주),부산,사하,구평,부산시 사하구 구평동?495-13,35.1045772,128.974817,,0,0,
1285,repa,에스티테크(주),부산,사하,구평,부산 사하구 구평동?485-4번지,35.1045772,128.974817,,0,0,
1286,repa,오리엔트중공업,부산,사하,구평,부산 사하구 구평동 495-31,35.0511588,128.9998684,,0,0,
1287,repa,오성마린테크니컬,부산,사하,구평,부산 사하구 구평동?156번지,35.1045772,128.974817,,0,0,
1288,repa,원영조선,부산,사하,구평,부산사하구구평동38-39 ,35.0787911,128.9911565,,0,0,
1289,repa,제원엔지니어링,부산,사하,구평,부산 사하구 구평동?472-30번지 제..,35.1045772,128.974817,,0,0,
1290,repa,제원엔지니어링,부산,사하,구평,부산시 사하구 구평동 ?365-1,35.081925,128.987775,,0,0,
1291,repa,제이와이조선,부산,사하,구평,부산 사하구 구평동 495-9,35.056072,128.9979826,,0,0,
1292,repa,㈜ 대흥기전,부산,사하,구평,부산 사하구 구평동?491번지,35.1045772,128.974817,,0,0,
1293,repa,㈜ 제원( 制 圓, Jewon Corp.),부산,사하,구평,부산시 사하구 구평동 ?485-5,35.081925,128.987775,,0,0,
1294,repa,창우해양주식회사,부산,사하,구평,부산 사하구 구평동 495-7,35.0567422,128.9977001,,0,0,
1295,repa,충남상회,부산,사하,구평,부산시 사하구 구평동?477-2,35.1045772,128.974817,,0,0,
1296,repa,팔팔개발(주),부산,사하,구평,부산시 사하구 구평동?489-4,35.1045772,128.974817,,0,0,
1297,repa,한독크랭크공업사,부산,사하,구평,부산 사하구 구평동?477번지,35.1045772,128.974817,,0,0,
1298,repa,한진선박기계,부산,사하,구평,부산시 사하구 구평동?476-1,35.1045772,128.974817,,0,0,
1299,repa,현우중기,부산,사하,구평,부산시 사하구 구평동?479,35.1045772,128.974817,,0,0,
1300,repa,KOC전기(주),부산,사하,다대,부산시 사하구 다대동?1519-4,35.1045772,128.974817,,0,0,
1301,repa,다대포조선조기공업사,부산,사하,다대,부산 사하구 다대1동 370-9,35.0559782,128.976157,,0,0,
1302,repa,대성조선,부산,사하,다대,부산시 사하구 다대동?380-2,35.1045772,128.974817,,0,0,
1303,repa,대양조선소,부산,사하,다대,부산 사하구 다대1동 380-1,35.0531098,128.9742689,,0,0,
1304,repa,선보공업,부산,사하,다대,부산 사하구 다대동 1517-2,35.0603092,128.9590625,,0,0,
1305,repa,성신사,부산,사하,다대,부산 사하구 다대1동 1503-4,35.069454,128.9573064,,0,0,
1306,repa,신한조선,부산,사하,다대,부산 사하구 다대동 375-7,35.0526334,128.9784912,,0,0,
1307,repa,애진기업,부산,사하,다대,부산시 사하구 다대동?1506-1,35.1045772,128.974817,,0,0,
1308,repa,조은공업㈜,부산,사하,다대,부산 사하구 다대동?1509-1,35.1045772,128.974817,,0,0,
1309,repa,한국통산(주),부산,사하,다대,부산 사하구 다대동?1503-8,35.1045772,128.974817,,0,0,
1310,repa,해인산업(주),부산,사하,신산,부산 사하구 신산로 13번길,35.0938197,128.9566326,,0,0,
1311,repa,(주)그린테크,부산,사하,신평,부산 사하구 신평동?650-2,35.1045772,128.974817,,0,0,
1312,repa,(주)대양계기,부산,사하,신평,부산시 사하구 신평동?502,35.1045772,128.974817,,0,0,
1313,repa,보성기계공업사,부산,사하,신평,부산시 사하구 신평동?516,35.1045772,128.974817,,0,0,
1314,repa,한국미부㈜,부산,사하,신평,부산 사하구 신평 2동 645-2,35.0956227,128.9597661,,0,0,
1315,repa,(주)케이알엔지니어링,부산,사하,장림,부산 사하구 장림1동?1033-25번지,35.1045772,128.974817,,0,0,
1316,repa,경부공업사,부산,사하,장림,부산시 사하구 장림동?313-1,35.1045772,128.974817,,0,0,
1317,repa,성동선박공업(주),부산,사하,장림,부산 사하구 장림동 1033-44?,35.0843656,128.9691609,,0,0,
1318,repa,신화기업,부산,사하,장림,부산 사하구 장림1동 1091-3,35.0719011,128.9574859,,0,0,
1319,repa,(주)동아티엔씨,부산,서구,남부,부산 서구 남부민3동?141번지,35.097932,129.0244125,,0,0,
1320,repa,대림통신(주),부산,서구,남부,부산 서구 남부민동?643번지 충무쇼핑..,35.097932,129.0244125,,0,0,
1321,repa,동신아연금속공업사,부산,서구,남부,부산시 서구 남부민1동?35,35.097932,129.0244125,,0,0,
1322,repa,태선냉열공업사,부산,서구,부용,부산 서구 부용동2가?88-1,35.1074044,129.0220635,,0,0,
1323,repa,(주)동영콜드프라자,부산,서구,암남,부산시 서구 암남동?740,35.097932,129.0244125,,0,0,
1324,repa,(주)베가통신,부산,서구,암남,부산 서구 암남동?244-7,35.097932,129.0244125,,0,0,
1325,repa,(주)코마코,부산,서구,암남,부산광역시 서구 암남동 704-10,35.051901,129.0108865,,0,0,
1326,repa,(주)태화레프피아,부산,서구,암남,부산 서구 암남동?621-21 206,35.097932,129.0244125,,0,0,
1327,repa,성일마린엔진,부산,서구,충무,부산 서구 충무동1가?31,35.1017587,129.0199568,,0,0,
1328,repa,세화공업사,부산,서구,충무,부산시 서구 충무동?1가 23-7(동해..,35.097932,129.0244125,,0,0,
1329,repa,(주)유한종합상사,부산,서구,토성,부산시 서구 토성동?3가 51,35.097932,129.0244125,,0,0,
1330,repa,백만전기(주),부산,서구,토성,부산시 서구 토성동?1가 9-1,35.097932,129.0244125,,0,0,
1331,repa,진원전자,부산,서구,토성,부산 서구 토성동?5가 12번지,35.097932,129.0244125,,0,0,
1332,repa,동영산업㈜,부산,수영,망미,부산 수영구 망미동 200-9,35.1774467,129.1160203,,0,0,
1333,repa,신광선박공업사,부산,영도,남함,부산 영도구 남함동2가 141-118,35.091199,129.067875,,0,0,
1334,repa,(주)금남,부산,영도,남항,부산시 영도구 남항동?2가 66-1,35.091199,129.067875,,0,0,
1335,repa,(주)대동사,부산,영도,남항,부산 영도구 남항동3가?141-170 현진..,35.0914743,129.0372039,,0,0,
1336,repa,(주)동아디젤,부산,영도,남항,부산 영도구 남항동?1가 18번지,35.091199,129.067875,,0,0,
1337,repa,(주)삼영테크,부산,영도,남항,부산 영도구 남항동3가?33번지,35.0914743,129.0372039,,0,0,
1338,repa,(주)수성마린텍,부산,영도,남항,부산 영도구 남항동2가?111-3,35.0901213,129.0364481,,0,0,
1339,repa,(주)엠티이,부산,영도,남항,부산 영도구 남항동2가?111-3,35.0901213,129.0364481,,0,0,
1340,repa,(주)제이와이씨,부산,영도,남항,부산시 영도구 남항동?1가 28,35.091199,129.067875,,0,0,
1341,repa,(주)창광엔지니어링,부산,영도,남항,부산 영도구 남항동2가?3-2,35.0901213,129.0364481,,0,0,
1342,repa,(주)코마테크,부산,영도,남항,부산 영도구 남항동3가?141-105,35.0914743,129.0372039,,0,0,
1343,repa,(주)코스코엔지니어링,부산,영도,남항,부산 영도구 남항동3가?141-197,35.0914743,129.0372039,,0,0,
1344,repa,거산엔지니어링,부산,영도,남항,부산시 영도구 남항동 ?3가 29-177,35.090007,129.037612,,0,0,
1345,repa,광덕인더스트리,부산,영도,남항,부산 영도구 남항동3가?111-8,35.0914743,129.0372039,,0,0,
1346,repa,국제선박공업,부산,영도,남항,부산 영도구 남항동2가 91,35.0880087,129.0369693,,0,0,
1347,repa,금강토탈엔지니어링(주),부산,영도,남항,부산 영도구 남항동3가?141-150,35.0914743,129.0372039,,0,0,
1348,repa,금강프로펠라,부산,영도,남항,부산시 영도구 남항동?2가 66-5,35.091199,129.067875,,0,0,
1349,repa,금성공업(주),부산,영도,남항,부산시 영도구 남항동?3가 74-1,35.091199,129.067875,,0,0,
1350,repa,남양전기공업사,부산,영도,남항,부산시 영도구 남항동?3가 141-133,35.091199,129.067875,,0,0,
1351,repa,남해기공,부산,영도,남항,부산시 영도구 남항동?1가 127-1,35.091199,129.067875,,0,0,
1352,repa,대광공업,부산,영도,남항,부산시 영도구 남항동 ?3가 113-5,35.090007,129.037612,,0,0,
1353,repa,대광냉동공업사,부산,영도,남항,부산시 영도구 남항동?3가 141-85,35.091199,129.067875,,0,0,
1354,repa,대성선박기계,부산,영도,남항,부산시 영도구 남항동 2가 65-31,35.0881872,129.0384647,,0,0,
1355,repa,대승공업사,부산,영도,남항,부산시 영도구 남항동?2가 65-32,35.091199,129.067875,,0,0,
1356,repa,대운선박써비스,부산,영도,남항,부산 영도구 남항동3가?1-37번지,35.0914743,129.0372039,,0,0,
1357,repa,대한정밀,부산,영도,남항,부산시 영도구 남항동 ?3가 141-190,35.090007,129.037612,,0,0,
1358,repa,동균알앤티,부산,영도,남항,부산 영도구 남항동1가?28-2번지,35.0938485,129.0317932,,0,0,
1359,repa,동신엔지니어링,부산,영도,남항,부산 영도구 남항동2가 24,35.0888258,129.0364169,,0,0,
1360,repa,동정이엔지,부산,영도,남항,부산시 영도구 남항동 ?3가 141-86,35.090007,129.037612,,0,0,
1361,repa,동진전기공업사,부산,영도,남항,부산 영도구 남항동3가?21번지,35.0914743,129.0372039,,0,0,
1362,repa,동화마린테크,부산,영도,남항,부산 영도구 남항동3가?74-2번지,35.0914743,129.0372039,,0,0,
1363,repa,디에스케이,부산,영도,남항,부산 영도구 남항동3가?141-61,35.0914743,129.0372039,,0,0,
1364,repa,문화포금,부산,영도,남항,부산시 영도구 남항동?3가 21-2,35.091199,129.067875,,0,0,
1365,repa,밀성기업사,부산,영도,남항,부산 영도구 남항동3가?32-33,35.0914743,129.0372039,,0,0,
1366,repa,밀성기전,부산,영도,남항,부산 영도구 남항동3가?86-1 효목빌라 ..,35.0914743,129.0372039,,0,0,
1367,repa,보성기전,부산,영도,남항,부산 영도구 남항동2가?186-5,35.0901213,129.0364481,,0,0,
1368,repa,부경엔지니어링,부산,영도,남항,부산 영도구 남항동3가?29-182번지,35.0914743,129.0372039,,0,0,
1369,repa,부산엔지니어링,부산,영도,남항,부산 영도구 남항동3가?21-2번지,35.0914743,129.0372039,,0,0,
1370,repa,부산특수용접,부산,영도,남항,부산시 영도구 남항동?1가 38-1,35.091199,129.067875,,0,0,
1371,repa,부전공업사,부산,영도,남항,부산 영도구 남항동3가?21번지 부전공업사..,35.0914743,129.0372039,,0,0,
1372,repa,비엔비엔지니어링,부산,영도,남항,부산 영도구 남항동2가?119,35.0901213,129.0364481,,0,0,
1373,repa,삼성선박공업사,부산,영도,남항,부산 영도구 남항동3가?141-34,35.0914743,129.0372039,,0,0,
1374,repa,삼성터보엔지니어링,부산,영도,남항,부산 영도구 남항동3가?141-191,35.0914743,129.0372039,,0,0,
1375,repa,삼영조선소,부산,영도,남항,부산 영도구 남항동2가 12-7,35.0888109,129.0337076,,0,0,
1376,repa,삼진엔지니어링,부산,영도,남항,부산 영도구 남항동3가?141-201,35.0914743,129.0372039,,0,0,
1377,repa,삼창 GTC,부산,영도,남항,부산 영도구 남항동1가?48-2,35.0938485,129.0317932,,0,0,
1378,repa,선박냉열,부산,영도,남항,부산 영도구 남항동2가?36-5,35.0901213,129.0364481,,0,0,
1379,repa,성보산업,부산,영도,남항,부산 영도구 남항동3가?141-151,35.0914743,129.0372039,,0,0,
1380,repa,성신전기,부산,영도,남항,부산 영도구 남항동1가?42-1,35.0938485,129.0317932,,0,0,
1381,repa,성신전기-미사용,부산,영도,남항,부산 영도구 남항동2가?186-5,35.0901213,129.0364481,,0,0,
1382,repa,성심산업주식회사,부산,영도,남항,부산시 영도구 남항동?3가 28-2,35.091199,129.067875,,0,0,
1383,repa,성우테크,부산,영도,남항,부산영도구남항동3가141-165 ,35.0828863,129.0384792,,0,0,
1384,repa,세정엔지니어링,부산,영도,남항,부산 영도구 남항동1가?35-4번지 세정엔..,35.0938485,129.0317932,,0,0,
1385,repa,스프링테크(주),부산,영도,남항,부산 영도구 남항동3가?141-58,35.0914743,129.0372039,,0,0,
1386,repa,승강전기,부산,영도,남항,부산 영도구 남항동3가?141-196,35.0914743,129.0372039,,0,0,
1387,repa,신강터-빈엔지니어링,부산,영도,남항,부산 영도구 남항동2가?119번지,35.0901213,129.0364481,,0,0,
1388,repa,신한디젤상사,부산,영도,남항,부산시 영도구 남항동 ?2가 27-3번지,35.090007,129.037612,,0,0,
1389,repa,아리테크서비스,부산,영도,남항,부산 영도구 남항동1가?28번지,35.0938485,129.0317932,,0,0,
1390,repa,아이.엠 마린,부산,영도,남항,부산 영도구 남항동2가?111-3,35.0901213,129.0364481,,0,0,
1391,repa,안정터빈E.N.G,부산,영도,남항,부산 영도구 남항동2가?149-1번지,35.0901213,129.0364481,,0,0,
1392,repa,에이취에스마린,부산,영도,남항,부산 영도구 남항동3가?141-79,35.0914743,129.0372039,,0,0,
1393,repa,에이치티이,부산,영도,남항,부산 영도구 남항동1가?28번지,35.0938485,129.0317932,,0,0,
1394,repa,영신테크(주),부산,영도,남항,부산시 영도구 남항동?2가 12-17,35.091199,129.067875,,0,0,
1395,repa,우성전기통신주식회사,부산,영도,남항,부산 영도구 남항동3가?73-26,35.0914743,129.0372039,,0,0,
1396,repa,우일전기공업사,부산,영도,남항,부산시 영도구 남항동 ?3가 1-10,35.090007,129.037612,,0,0,
1397,repa,우정정밀,부산,영도,남항,부산시 영도구 남항동?3가 141-153,35.091199,129.067875,,0,0,
1398,repa,우주기계,부산,영도,남항,부산 영도구 남항동3가?3가 73-26,35.0914743,129.0372039,,0,0,
1399,repa,은성선박,부산,영도,남항,부산시 영도구 남항동?2가 89-1,35.091199,129.067875,,0,0,
1400,repa,이화공업사,부산,영도,남항,부산 영도구 남항동3가?32-14,35.0914743,129.0372039,,0,0,
1401,repa,일룡전기,부산,영도,남항,부산 영도구 남항동3가?141-195,35.0914743,129.0372039,,0,0,
1402,repa,일성조선,부산,영도,남항,부산 영도구 남항동3가 10-1,35.0869912,129.0348135,,0,0,
1403,repa,정도전기,부산,영도,남항,부산 영도구 남항동3가?111-3,35.0914743,129.0372039,,0,0,
1404,repa,제일선박공업사,부산,영도,남항,부산 영도구 남항동3가?67-4번지 (1층..,35.0914743,129.0372039,,0,0,
1405,repa,주식회사 남영전자,부산,영도,남항,부산 영도구 남항동2가?65-20번지 삼영..,35.0901213,129.0364481,,0,0,
1406,repa,㈜혜인,부산,영도,남항,부산시 영도구 남항동 ?3가 21-2,35.090007,129.037612,,0,0,
1407,repa,진양조선공업,부산,영도,남항,부산 영도구 남항동3가 24,35.0862143,129.0344065,,0,0,
1408,repa,창해안전설비사,부산,영도,남항,부산 영도구 남항동3가?6-1,35.0914743,129.0372039,,0,0,
1409,repa,케이씨전기,부산,영도,남항,부산 영도구 남항동3가?141-167번지,35.0914743,129.0372039,,0,0,
1410,repa,코마텍엔지니어링,부산,영도,남항,부산 영도구 남항동2가?65-27번지,35.0901213,129.0364481,,0,0,
1411,repa,코마텍엔지니어링,부산,영도,남항,부산 영도구 남항동3가?141-56,35.0914743,129.0372039,,0,0,
1412,repa,킴스마린테크,부산,영도,남항,부산 영도구 남항동3가?141-86,35.0914743,129.0372039,,0,0,
1413,repa,태성엔지니어링,부산,영도,남항,부산 영도구 남항동3가?29-116,35.0914743,129.0372039,,0,0,
1414,repa,팬텍엔지니어링(주),부산,영도,남항,부산 영도구 남항동3가?29-178번지,35.0914743,129.0372039,,0,0,
1415,repa,한광선박공업사,부산,영도,남항,부산 영도구 남항동3가?32-32,35.0914743,129.0372039,,0,0,
1416,repa,한국메탈기계,부산,영도,남항,부산시 영도구 남항동?3가 21-4,35.091199,129.067875,,0,0,
1417,repa,한독크랭크공업사,부산,영도,남항,부산 영도구 남항동3가?21-5번지,35.0914743,129.0372039,,0,0,
1418,repa,해성마린,부산,영도,남항,부산 영도구 남항동3가?131-193,35.0914743,129.0372039,,0,0,
1419,repa,현대전기,부산,영도,남항,부산 영도구 남항동3가?73-16,35.0914743,129.0372039,,0,0,
1420,repa,휘광전기,부산,영도,남항,부산 영도구 남항동3가?135-2,35.0914743,129.0372039,,0,0,
1421,repa,흥아엔지니어링,부산,영도,남항,부산 영도구 남항동 3가?141-122,35.0914743,129.0372039,,0,0,
1422,repa,(주)대진선박,부산,영도,대교,부산시 영도구 대교동?2가 121,35.091199,129.067875,,0,0,
1423,repa,대양전자공업사,부산,영도,대교,부산 영도구 대교동1가?21번지,35.0944719,129.0364765,,0,0,
1424,repa,대평유압,부산,영도,대교,부산시 영도구 대교동?1가 62,35.091199,129.067875,,0,0,
1425,repa,조양공업사,부산,영도,대교,부산시 영도구 대교동?1가 176(해진철..,35.091199,129.067875,,0,0,
1426,repa,첨단엔지니어링,부산,영도,대교,부산 영도구 대교동1가?95,35.0944719,129.0364765,,0,0,
1427,repa,충무전기공업사,부산,영도,대교,부산 영도구 대교동1가?62번지,35.0944719,129.0364765,,0,0,
1428,repa,팔팔수중개발,부산,영도,대교,부산 영도구 대교동1가 64-1,35.0932253,129.0381791,,0,0,
1429,repa,화창듸젤,부산,영도,대교,부산 영도구 대교동1가?64-1,35.0944719,129.0364765,,0,0,
1430,repa,(주) 신라선박공업,부산,영도,대평,부산 영도구 대평동2가?11번지,35.0935434,129.0317423,,0,0,
1431,repa,(주) 종합해사,부산,영도,대평,부산 영도구 대평동2가?199번지,35.0935434,129.0317423,,0,0,
1432,repa,(주)경진스크류,부산,영도,대평,부산 영도구 대평동2가?192번지,35.0935434,129.0317423,,0,0,
1433,repa,(주)삼광선박기계공업,부산,영도,대평,부산시 영도구 대평동?2가 10,35.091199,129.067875,,0,0,
1434,repa,(주)삼호엔지니어링,부산,영도,대평,부산 영도구 대평동2가?89-2,35.0935434,129.0317423,,0,0,
1435,repa,(주)아시아임팩,부산,영도,대평,부산 영도구 대평동2가?40번지,35.0935434,129.0317423,,0,0,
1436,repa,(주)오션엔지니어링,부산,영도,대평,부산 영도구 대평동1가?98-6,35.091496,129.0366653,,0,0,
1437,repa,(주)용화,부산,영도,대평,부산 영도구 대평동2가?14번지,35.0935434,129.0317423,,0,0,
1438,repa,(주)제이와이조선,부산,영도,대평,부산시 영도구 대평동?2가 6-1,35.091199,129.067875,,0,0,
1439,repa,JY조선,부산,영도,대평,부산 영도구 대평동2가 6-1,35.0926433,129.0319837,,0,0,
1440,repa,SMS,부산,영도,대평,부산 영도구 대평동2가?205-1,35.0935434,129.0317423,,0,0,
1441,repa,건흥페인트,부산,영도,대평,부산시 영도구 대평동?2가 23(4/2),35.091199,129.067875,,0,0,
1442,repa,경남선박공업사,부산,영도,대평,부산시 영도구 대평동?1가 156,35.091199,129.067875,,0,0,
1443,repa,경인냉동,부산,영도,대평,부산 영도구 대평동1가?128-4,35.091496,129.0366653,,0,0,
1444,repa,광신선박공업사,부산,영도,대평,부산시 영도구 대평동?1가 156,35.091199,129.067875,,0,0,
1445,repa,극동엔지니어링,부산,영도,대평,부산 영도구 대평동2가?201-1,35.0935434,129.0317423,,0,0,
1446,repa,극동엠텍,부산,영도,대평,부산 영도구 대평동2가?127-1,35.0935434,129.0317423,,0,0,
1447,repa,금화전기,부산,영도,대평,부산 영도구 대평동2가?89-6,35.0935434,129.0317423,,0,0,
1448,repa,남영종합상사,부산,영도,대평,부산시 영도구 대평동?2가 205,35.091199,129.067875,,0,0,
1449,repa,대광선박공업사,부산,영도,대평,부산 영도구 대평동2가?174-1,35.0935434,129.0317423,,0,0,
1450,repa,대림선박,부산,영도,대평,부산 영도구 대평동1가?42-9,35.091496,129.0366653,,0,0,
1451,repa,대원엔지니어링,부산,영도,대평,부산 영도구 대평동1가 160,35.0902794,129.0333918,,0,0,
1452,repa,대평조기공업사,부산,영도,대평,부산시 영도구 대평동?2가 66,35.091199,129.067875,,0,0,
1453,repa,대평조선소,부산,영도,대평,부산 영도구 대평동2가 4,35.0929735,129.0318766,,0,0,
1454,repa,동남종합선박,부산,영도,대평,부산 영도구 대평동1가?27-9 동남종합선..,35.091496,129.0366653,,0,0,
1455,repa,동명철공(주),부산,영도,대평,부산 영도구 대평동1가?15번지 동명철공(..,35.091496,129.0366653,,0,0,
1456,repa,동방기계,부산,영도,대평,부산 영도구 대평동2가?38-1,35.0935434,129.0317423,,0,0,
1457,repa,동성선박공업사,부산,영도,대평,부산시 영도구 대평동?2가 159,35.091199,129.067875,,0,0,
1458,repa,동아조선소,부산,영도,대평,부산 영도구 대평동2가 107,35.0941234,129.0329332,,0,0,
1459,repa,동일공업사,부산,영도,대평,부산시 영도구 대평동?1가 14-1,35.091199,129.067875,,0,0,
1460,repa,백경유압,부산,영도,대평,부산 영도구 대평동2가?194번지,35.0935434,129.0317423,,0,0,
1461,repa,범창엔지니어링,부산,영도,대평,부산 영도구 대평동2가?157번지,35.0935434,129.0317423,,0,0,
1462,repa,보배마린,부산,영도,대평,부산 영도구 대평동 1가 80,35.0901212,129.0357755,,0,0,
1463,repa,부경전기공업사,부산,영도,대평,부산 영도구 대평동2가?127-1번지,35.0935434,129.0317423,,0,0,
1464,repa,부일전기공업사,부산,영도,대평,부산시 영도구 대평동?2가 18,35.091199,129.067875,,0,0,
1465,repa,비케이마린,부산,영도,대평,부산 영도구 대평동2가?14번지,35.0935434,129.0317423,,0,0,
1466,repa,산청기업,부산,영도,대평,부산시 영도구 대평동?1가 32,35.091199,129.067875,,0,0,
1467,repa,산청용접소,부산,영도,대평,부산시 영도구 대평동?1가 32,35.091199,129.067875,,0,0,
1468,repa,삼화조선소,부산,영도,대평,부산 영도구 대평동2가 3,35.0933031,129.031939,,0,0,
1469,repa,선경전기공업사,부산,영도,대평,부산 영도구 대평동2가?73번지,35.0935434,129.0317423,,0,0,
1470,repa,선우선박공업사,부산,영도,대평,부산시 영도구 대평동?2가 89,35.091199,129.067875,,0,0,
1471,repa,선진조선 주식회사,부산,영도,대평,부산 영도구 대평동2가 13-1,35.0919495,129.0320053,,0,0,
1472,repa,성보산업,부산,영도,대평,부산 영도구 대평동1가?55번지,35.091496,129.0366653,,0,0,
1473,repa,성산개발,부산,영도,대평,부산시 영도구 대평동?2가 6-1(조양조..,35.091199,129.067875,,0,0,
1474,repa,성신엔지니어링,부산,영도,대평,부산 영도구 대평동2가?201-1,35.0935434,129.0317423,,0,0,
1475,repa,성우기업,부산,영도,대평,부산 영도구 대평동1가 51,35.0909094,129.0364346,,0,0,
1476,repa,세원엔지니어링,부산,영도,대평,부산 영도구 대평동1가?95-4,35.091496,129.0366653,,0,0,
1477,repa,세진마린서비스,부산,영도,대평,부산 영도구 대평동2가?205-1번지,35.0935434,129.0317423,,0,0,
1478,repa,신대아 엔지니어링,부산,영도,대평,부산 영도구 대평동2가?89-19,35.0935434,129.0317423,,0,0,
1479,repa,신한자이로사,부산,영도,대평,부산 영도구 대평동2가?42-10,35.0935434,129.0317423,,0,0,
1480,repa,심철공업사,부산,영도,대평,부산시 영도구 대평동?2가 201,35.091199,129.067875,,0,0,
1481,repa,아남선박,부산,영도,대평,부산 영도구 대평동1가?22번지,35.091496,129.0366653,,0,0,
1482,repa,에스더블유공업(주),부산,영도,대평,부산 영도구 대평동2가?189-1번지,35.0935434,129.0317423,,0,0,
1483,repa,에스엔케이라인(주),부산,영도,대평,부산 영도구 대평동2가?119번지,35.0935434,129.0317423,,0,0,
1484,repa,예광전기공업사,부산,영도,대평,부산시 영도구 대평동?2가 166,35.091199,129.067875,,0,0,
1485,repa,오주테크,부산,영도,대평,부산 영도구 대평동2가 148-3,35.0928035,129.0330455,,0,0,
1486,repa,욱일종합,부산,영도,대평,부산시 영도구 대평동?2가 89-20,35.091199,129.067875,,0,0,
1487,repa,유창상사,부산,영도,대평,부산 영도구 대평동2가?89-8번지,35.0935434,129.0317423,,0,0,
1488,repa,유창선박공업사,부산,영도,대평,부산시 영도구 대평동?1가 157-20,35.091199,129.067875,,0,0,
1489,repa,일진엔지니어링,부산,영도,대평,부산 영도구 대평동1가?14-1,35.091496,129.0366653,,0,0,
1490,repa,정일터빈,부산,영도,대평,부산시 영도구 대평동?2가 66-2,35.091199,129.067875,,0,0,
1491,repa,종합해사,부산,영도,대평,부산 영도구 대평동2가 199,35.0931985,129.0338975,,0,0,
1492,repa,㈜Asia 임팩,부산,영도,대평,부산시 영도구 대평동?2가 40,35.091199,129.067875,,0,0,
1493,repa,주식회사 세진텍,부산,영도,대평,부산 영도구 대평동1가?48-2,35.091496,129.0366653,,0,0,
1494,repa,지에스엔지니어링,부산,영도,대평,부산 영도구 대평동1가?10-2,35.091496,129.0366653,,0,0,
1495,repa,진보마린,부산,영도,대평,부산 영도구 대평동1가?7번지 하나빌아파트..,35.091496,129.0366653,,0,0,
1496,repa,진성엔지니어링,부산,영도,대평,부산 영도구 대평동1가?23-3,35.091496,129.0366653,,0,0,
1497,repa,창신선박공업사,부산,영도,대평,부산 영도구 대평동 1가 19,35.0922929,129.0345578,,0,0,
1498,repa,창일전기공업사,부산,영도,대평,부산시 영도구 대평동?1가 129,35.091199,129.067875,,0,0,
1499,repa,케이티오션,부산,영도,대평,부산 영도구 대평동1가?98-6,35.091496,129.0366653,,0,0,
1500,repa,태원엔지니어링,부산,영도,대평,부산 영도구 대평동2가?89-5,35.0935434,129.0317423,,0,0,
1501,repa,평길기업,부산,영도,대평,부산시 영도구 대평동?2가 7,35.091199,129.067875,,0,0,
1502,repa,한영종합,부산,영도,대평,부산 영도구 대평동1가 대동대교아파트?제4동58호.53-..,35.091496,129.0366653,,0,0,
1503,repa,한진종합서비스,부산,영도,대평,부산 영도구 대평동 1가 129-6,35.0906377,129.033723,,0,0,
1504,repa,해상유압,부산,영도,대평,부산 영도구 대평동2가?171번지,35.0935434,129.0317423,,0,0,
1505,repa,해주마린엔진,부산,영도,대평,부산 영도구 대평동2가?28-4,35.0935434,129.0317423,,0,0,
1506,repa,해천전기공업사,부산,영도,대평,부산 영도구 대평동2가?34-2,35.0935434,129.0317423,,0,0,
1507,repa,현광전기산업,부산,영도,대평,부산 영도구 대평동2가?2가 14 (대평..,35.0935434,129.0317423,,0,0,
1508,repa,현대공업사,부산,영도,대평,부산시 영도구 대평동?2가 16-1,35.091199,129.067875,,0,0,
1509,repa,화양전업사,부산,영도,대평,부산시 영도구 대평동?2가 38,35.091199,129.067875,,0,0,
1510,repa,(주)씨앤텍,부산,영도,동삼,부산 영도구 동삼동?201-25번지,35.091199,129.067875,,0,0,
1511,repa,(주)종합폴스타,부산,영도,동삼,부산 영도구 동삼3동?186-3번지,35.091199,129.067875,,0,0,
1512,repa,(주)종합해사기술,부산,영도,동삼,부산 영도구 동삼동?188-38,35.091199,129.067875,,0,0,
1513,repa,남영선박설비(주),부산,영도,동삼,부산 영도구 동삼동?292-4번지,35.091199,129.067875,,0,0,
1514,repa,남영안전서비스,부산,영도,동삼,부산 영도구 동삼동?292-4,35.091199,129.067875,,0,0,
1515,repa,대진사,부산,영도,동삼,부산 영도구 동삼3동?201-25,35.091199,129.067875,,0,0,
1516,repa,동삼조선소,부산,영도,동삼,부산 영도구 동삼2동 10-2,35.0648133,129.0779638,,0,0,
1517,repa,제경기업,부산,영도,동삼,부산시 영도구 동삼2동 1035-20,35.0744236,129.069341,,0,0,
1518,repa,㈜종합폴스타,부산,영도,동삼,부산시 영도구 동삼3동 ?186-3,35.084682,129.0686125,,0,0,
1519,repa,진원산업,부산,영도,동삼,부산시 영도구 동삼동?186-3,35.091199,129.067875,,0,0,
1520,repa,코카코,부산,영도,동삼,부산 영도구 동삼동?189-4,35.091199,129.067875,,0,0,
1521,repa,평화선박공업사,부산,영도,동삼,부산시 영도구 동삼1동?504-11(30/..,35.091199,129.067875,,0,0,
1522,repa,한영기업(주),부산,영도,동삼,부산 영도구 동삼3동 175~211번지 201-26,35.0870228,129.077348,,0,0,
1523,repa,(주)우성마린엔지니어링,부산,영도,봉래,부산 영도구 봉래동?145-1번지,35.091199,129.067875,,0,0,
1524,repa,(주)자명기술정보,부산,영도,봉래,부산 영도구 봉래동3가?179-4번지,35.0934427,129.0389075,,0,0,
1525,repa,거용선박(주),부산,영도,봉래,부산 영도구 봉래동1가?192-1번지,35.0937747,129.0386324,,0,0,
1526,repa,경남조선,부산,영도,봉래,부산 영도구 봉래동4가 7,35.0950909,129.0485363,,0,0,
1527,repa,동성전기공업사,부산,영도,봉래,부산 영도구 봉래동4가?13번지,35.0934274,129.0390437,,0,0,
1528,repa,동해공업사,부산,영도,봉래,부산광역시 영도구 봉래동,35.094299,129.039925,,0,0,
1529,repa,명성엔지니어링,부산,영도,봉래,부산 영도구 봉래동2가?145-3 3층,35.0934641,129.0387877,,0,0,
1530,repa,부연선박공업사,부산,영도,봉래,부산시 영도구 봉래동?2가 151-6,35.091199,129.067875,,0,0,
1531,repa,비에스엘 코리아,부산,영도,봉래,부산 영도구 봉래동1가?201-2 도라지길..,35.0937747,129.0386324,,0,0,
1532,repa,성원선박,부산,영도,봉래,부산 영도구 봉래동1가?202-3,35.0937747,129.0386324,,0,0,
1533,repa,우성터보엔지니어링,부산,영도,봉래,부산 영도구 봉래동2가?145-1,35.0934641,129.0387877,,0,0,
1534,repa,주식회사 일성이엔지,부산,영도,봉래,부산 영도구 봉래동1가?192-1,35.0937747,129.0386324,,0,0,
1535,repa,태왕기업,부산,영도,봉래,부산 영도구 봉래동5가 29,35.0951022,129.0523239,,0,0,
1536,repa,토탈마린공업,부산,영도,봉래,부산시 영도구 봉래동 ?2가 145-1,35.094299,129.039925,,0,0,
1537,repa,협성터보엔지니어링,부산,영도,봉래,부산 영도구 봉래동1가?201-2,35.0937747,129.0386324,,0,0,
1538,repa,(주)동신기전,부산,영도,영선,부산 영도구 영선동4가?1-2,35.0917117,129.0429366,,0,0,
1539,repa,(주)지티아이,부산,영도,영선,부산 영도구 영선동4가?1-2,35.0917117,129.0429366,,0,0,
1540,repa,신성엔지니어링,부산,영도,영선,부산 영도구 영선동4가?1-2,35.0917117,129.0429366,,0,0,
1541,repa,태광전기공업사,부산,영도,영선,부산시 영도구 영선동4가1 2층?,35.0851535,129.0393199,,0,0,
1542,repa,태광전기공업사,부산,영도,영선,부산 영도구 영선동4가?1번지,35.0917117,129.0429366,,0,0,
1543,repa,한국선박공업사,부산,영도,영선,부산 영도구 영선동4가?53-2,35.0917117,129.0429366,,0,0,
1544,repa,현광전기,부산,영도,영선,부산 영도구 영선동4가?1번지,35.0917117,129.0429366,,0,0,
1545,repa,현광전기산업,부산,영도,영선,부산 영도구 영선동4가?1번지,35.0917117,129.0429366,,0,0,
1546,repa,(주)금남,부산,영도,청학,부산 영도구 청학동?330-110,35.091199,129.067875,,0,0,
1547,repa,(주)세영마린타임,부산,영도,청학,부산 영도구 청학동?304-2번지,35.091199,129.067875,,0,0,
1548,repa,(주)엠텍통신,부산,영도,청학,부산 영도구 청학동?5-20,35.091199,129.067875,,0,0,
1549,repa,(주)청아종합,부산,영도,청학,부산 영도구 청학동?5-1,35.091199,129.067875,,0,0,
1550,repa,디에스비엔지니어링,부산,영도,청학,부산 영도구 청학2동 2 대성빌딩 6층,35.0945071,129.0668201,,0,0,
1551,repa,부산유니텍,부산,영도,청학,부산시 영도구 청학동 ?1-25번지,35.09689,129.058362,,0,0,
1552,repa,부성냉동공업사,부산,영도,청학,부산 영도구 청학2동 145-18,35.0909439,129.0624398,,0,0,
1553,repa,선우트레이딩전기(주),부산,영도,청학,부산 영도구 청학동 322,35.0986978,129.0583434,,0,0,
1554,repa,선진엔지니어링,부산,영도,청학,부산시 영도구 청학동 ?330-6,35.09689,129.058362,,0,0,
1555,repa,세종엔지니어링,부산,영도,청학,부산 영도구 청학2동?1-90,35.091199,129.067875,,0,0,
1556,repa,신아기업사,부산,영도,청학,부산 영도구 청학동 326-7,35.0990944,129.0578988,,0,0,
1557,repa,아자엔지니어링,부산,영도,청학,부산 영도구 청학동?330-9 A,B동,35.091199,129.067875,,0,0,
1558,repa,제일엠텍(주),부산,영도,청학,부산 영도구 청학2동?1-96번지,35.091199,129.067875,,0,0,
1559,repa,주식회사 경인,부산,영도,청학,부산 영도구 청학동 322-12,35.0984149,129.0580677,,0,0,
1560,repa,창완냉동공업(주),부산,영도,청학,부산시 영도구 청학동 ?1-37,35.09689,129.058362,,0,0,
1561,repa,해일산업,부산,영도,청학,부산 영도구 청학1동?5-20,35.091199,129.067875,,0,0,
1562,repa,성진ENC,부산,중구,남포,부산 중구 남포동5가 신동아빌딩?402호,35.0990189,129.0293404,,0,0,
1563,repa,성진통신(주),부산,중구,남포,부산 중구 남포동5가 신동아빌딩?4층402호,35.0990189,129.0293404,,0,0,
1564,repa,오주쉬핑(주),부산,중구,동광,부산 중구 동광동2가?16-1 삼호빌딩 ..,35.0994567,129.035614,,0,0,
1565,repa,(주)거광,부산,중구,중앙,부산시 중구 중앙동?,35.1063558,129.032408,,0,0,
1566,repa,(주)동명상선,부산,중구,중앙,부산 중구 중앙동4가?78-15번지 명지..,35.1026986,129.0367331,,0,0,
1567,repa,(주)두익상사,부산,중구,중앙,부산시 중구 중앙동?4가 80-12(조..,35.1063558,129.032408,,0,0,
1568,repa,(주)천우,부산,중구,중앙,부산시 중구 중앙동?,35.1063558,129.032408,,0,0,
1569,repa,(주)코리아마린서비스,부산,중구,중앙,부산시 중구 중앙동?,35.1063558,129.032408,,0,0,
1570,repa,경북상회,부산,중구,중앙,부산 중구 중앙동5가?54번지,35.1016962,129.0361066,,0,0,
1571,repa,부관페리,부산,중구,중앙,부산시 중구 중앙동?4가 15 국제여객..,35.1063558,129.032408,,0,0,
1572,repa,부창선박㈜,부산,중구,중앙,부산시 중구 중앙동 ?4가 37-16번지..,35.101307,129.0353375,,0,0,
1573,repa,삼호선박㈜,부산,중구,중앙,부산중구중앙동4가84-14 ,35.1065852,129.0373437,,0,0,
1574,repa,㈜팬스타라인닷컴,부산,중구,중앙,부산시 중구 중앙동 ?4가 15-3 국제..,35.101307,129.0353375,,0,0,
1575,repa,타이거해운(주),부산,중구,중앙,부산시 중구 중앙동?3가 1(부산우체국..,35.1063558,129.032408,,0,0,
1576,repa,한국선박㈜,부산,중구,중앙,부산 중구 중앙동4가 78-7,35.1099311,129.0382575,,0,0,
1577,repa,한보해운(주),부산,중구,중앙,부산시 중구 중앙동?4가 78-13(한..,35.1063558,129.032408,,0,0,
1578,repa,디에스 이엔티(주),울산,남구,달동,울산 남구 달동?1305-12,35.543801,129.3301087,,0,0,
1579,repa,보스이엔지,울산,남구,달동,울산 남구 달동?1305-24,35.543801,129.3301087,,0,0,
1580,repa,에스이씨,울산,남구,삼산,울산 남구 삼산동?203-3,35.543801,129.3301087,,0,0,
1581,repa,대우선박공업,울산,남구,여천,울산 남구 여천동 756-8,35.5167439,129.3486036,,0,0,
1582,repa,에스테크엔지니어링(주),울산,남구,여천,울산 남구 여천동?897-12번지,35.543801,129.3301087,,0,0,
1583,repa,성신조선,울산,남구,용잠,울산 남구 용잠동 491-6,35.4995792,129.37594,,0,0,
1584,repa,제일엔지니어링,울산,남구,장생,울산 남구 장생포동?170,35.543801,129.3301087,,0,0,
1585,repa,건승이엔지,울산,동구,방어,울산 동구 방어동 1381,35.5056328,129.4005581,,0,0,
1586,repa,대영이앤지,울산,동구,방어,울산 동구 방어동 775 현대중공업내,35.4758721,129.4076105,,0,0,
1587,repa,동천기업,울산,동구,방어,울산 동구 방어동 1381 현대미포조선내,35.5056328,129.4005581,,0,0,
1588,repa,현대미포조선,울산,동구,방어,울산 동구 방어동 1381,35.5056328,129.4005581,,0,0,
1589,repa,현원기업,울산,동구,방어,울산 동구 방어동 775 현대중공업,35.4758721,129.4076105,,0,0,
1590,repa,건영이엔지,울산,동구,전하,울산 동구 전하1동 1,35.5151866,129.4377278,,0,0,
1591,repa,두리엔지니어링,울산,동구,전하,울산 동구 전하1동 1 현대중공업,35.5151866,129.4377278,,0,0,
1592,repa,서일,울산,동구,전하,울산 동구 전하1동 1 현대중공업,35.5151866,129.4377278,,0,0,
1593,repa,홍익엔지니어링,울산,동구,전하,울산 동구 전하동 1,35.5151866,129.4377278,,0,0,
1594,repa,에이치케이엔지니어링,울산,북구,진장,울산 북구 진장동 109B-5L 오피스텔 602호,35.5784688,129.3553705,,0,0,
1595,repa,동성기선,울산,북구,효문,울산 북구 효문동?812-1 아파트형..,35.5827072,129.3613103,,0,0,
1596,repa,현대라이프보트,울산,울주,온산,울산 울주군 온산읍 대정리 186-4,35.4275289,129.3528098,,0,0,
1597,repa,삼일기공,울산,울주,청량,울산 울주군 청량면?상남리 상남토지구획..,35.5338523,129.2949256,,0,0,
1598,repa,마리텍엔지니어링,울산,중구,태화,울산 중구 태화동 841-11,35.5564066,129.2847449,,0,0,
1599,repa,(주)동성기전,인천,남구,숭의,인천 남구 숭의2동?340-11,37.4634184,126.6505562,,0,0,
1600,repa,정동공업,인천,남동,고잔,인천 남동구 고잔동?724-6번지,37.4473449,126.7314909,,0,0,
1601,repa,삼광조선공업,인천,동구,만석,인천 동구 만석동 2-167,37.4889683,126.6169774,,0,0,
1602,repa,에스에이취조선,인천,동구,만석,인천 동구 만석동 2-37,37.4893818,126.6231998,,0,0,
1603,repa,태항조선,인천,동구,만석,인천 동구 만석동 2-175,37.4863054,126.6168172,,0,0,
1604,repa,한웅엔지니어링,인천,동구,송현,인천 동구 송현3동?기계철재단지 F동1..,37.4738846,126.6432124,,0,0,
1605,repa,현대세탁소,인천,서구,가좌,인천 서구 가좌2동?81-10 현대상가..,37.5454409,126.6758765,,0,0,
1606,repa,고려해양조선,인천,중구,북성,인천 중구 북성동1가 3-7,37.4831335,126.6166981,,0,0,
1607,repa,동구엔지니어링,인천,중구,북성,인천 중구 북성동1가?105-70,37.4763345,126.6215886,,0,0,
1608,repa,중앙조선,인천,중구,사동,인천 중구 사동 22-31,37.4694038,126.6263848,,0,0,
1609,repa,한국살베지,인천,중구,신흥,인천 중구 신흥동3가 36,37.4461887,126.6290087,,0,0,
1610,repa,케이엔씨조선,인천,중구,중산,인천 중구 중산동 27-3,37.4912411,126.5817903,,0,0,
1611,repa,(주)대신기전,인천,중구,항동,인천 중구 항동7가?85-34,37.4739888,126.6181686,,0,0,
1612,repa,경인기계,인천,중구,항동,인천중구항동7가53-1 ,37.455387,126.6271974,,0,0,
1613,repa,경인선박안전설비(주),인천,중구,항동,인천 중구 항동7가?58-30,37.4739888,126.6181686,,0,0,
1614,repa,대림항업(주),인천,중구,항동,인천 중구 항동7가?65-80,65-1..,37.4739888,126.6181686,,0,0,
1615,repa,실버리인터내셔널(주),인천,중구,항동,인천 중구 항동7가?85-5,37.4739888,126.6181686,,0,0,
1616,repa,원일기계,인천,중구,항동,인천 중구 항동7가?65-30 원일기계,37.4739888,126.6181686,,0,0,
1617,repa,태성조기,인천,중구,항동,인천 중구 항동7가?85-27,37.4739888,126.6181686,,0,0,
1618,repa,인일공작소,인천,중구,해안,인천 중구 해안동2가?8-10,37.4725535,126.6204357,,0,0,
1619,repa,강진조선,전남,강진,마량,전남강진군마량면마량리1002-14 ,34.4533241,126.8131346,,0,0,
1620,repa,은성조선소,전남,고흥,도양,전남 고흥군 도양읍 봉암리 2761-1,34.529664,127.1253138,,0,0,
1621,repa,한일,전남,고흥,도양,전남고흥군도양읍용정리2227 ,34.5508018,127.1153602,,0,0,
1622,repa,형제조선,전남,고흥,도양,전남고흥군도양읍봉암리2655 ,34.5299665,127.1246604,,0,0,
1623,repa,오리엔트조선,전남,광양,광양,전남 광양시 광양읍 세풍리 2200,34.9072339,127.5948363,,0,0,
1624,repa,(주)광양이엔지비피알,전남,광양,옥곡,전남 광양시 옥곡면 신금리?1508-83번지,34.989526,127.698888,,0,0,
1625,repa,(주)종합기공,전남,광양,옥곡,전남 광양시 옥곡면?신금리 1050,34.9406575,127.6958987,,0,0,
1626,repa,대림항업주식회사,전남,광양,옥곡,전남 광양시 옥곡면 신금리?1050번지,34.989526,127.698888,,0,0,
1627,repa,일흥조선,전남,목포,산정,전남목포시산정동1423-7 ,34.7840513,126.4010026,,0,0,
1628,repa,해운조선,전남,목포,산정,전남 목포시 산정3동 1110-1,34.811875,126.3923375,,0,0,
1629,repa,고려조선,전남,목포,연산,전남 목포시 연산동 1243-1,34.8199765,126.3755409,,0,0,
1630,repa,광성조선,전남,목포,연산,전남목포시연산동1280-1(삽진산업단지내) ,34.8269649,126.3817761,,0,0,
1631,repa,대림항업(주),전남,목포,연산,전남 목포시 연산동?613-10,34.811875,126.3923375,,0,0,
1632,repa,목포조선공업,전남,목포,연산,전남 목포시 연산동 1287,34.8221731,126.3775731,,0,0,
1633,repa,문창조선 ,전남,목포,연산,전남목포시연산동1245-4 ,34.8176003,126.3744193,,0,0,
1634,repa,백천기업,전남,목포,연산,전남목포시연산동1286 ,34.8226377,126.3781119,,0,0,
1635,repa,세광조선,전남,목포,연산,전남 목포시 연산동 1255,34.8211836,126.3769472,,0,0,
1636,repa,유달조선 ,전남,목포,연산,전남목포시연산동1245-5 ,34.8176439,126.3735475,,0,0,
1637,repa,현진조선 ,전남,목포,연산,전남목포시연산동1244-1 ,34.8183828,126.3744335,,0,0,
1638,repa,금진조선,전남,목포,죽교,전남목포시죽교동549-5 ,34.8009538,126.3622127,,0,0,
1639,repa,항도선박설비사,전남,목포,해안,전남 목포시 해안동1가?10-1 항도선박설..,34.7832567,126.3829072,,0,0,
1640,repa,신안중공업,전남,신안,지도,전남 신안군 지도읍 감정리 산558 지도농공단지,35.0649435,126.1919964,,0,0,
1641,repa,태인에스비,전남,신안,지도,전남 신안군 지도읍 감정리 산558,35.0649435,126.1919964,,0,0,
1642,repa,남양조선,전남,여수,남산,전남 여수시 남산동 196,34.7343689,127.7318953,,0,0,
1643,repa,(유)항도선박설비,전남,여수,돌산,전남 여수시 돌산읍 우두리?1035-2,34.6172116,127.721717,,0,0,
1644,repa,대교FRP조선공업,전남,여수,돌산,전남여수시돌산읍우두리697-62 ,34.7247238,127.7419099,,0,0,
1645,repa,세계조선,전남,여수,돌산,전남 여수시 돌산읍 우두리 789,34.7323952,127.7453093,,0,0,
1646,repa,와이에스중공업,전남,여수,돌산,전남 여수시 돌산읍 우두리 748,34.7308337,127.7548029,,0,0,
1647,repa,제일조선,전남,여수,돌산,전남 여수시 돌산읍 우두리 780,34.7329668,127.7467275,,0,0,
1648,repa,경원엔진니어링,전남,여수,둔덕,전남 여수시 둔덕동?496-7,34.760425,127.662313,,0,0,
1649,repa,마린코리아,전남,여수,신기,전남 여수시 신기동 118-2,34.7594553,127.6714246,,0,0,
1650,repa,삼창FRP조선소,전남,여수,신월,전남 여수시 신월동 304-18,34.726411,127.6971526,,0,0,
1651,repa,대불조선,전남,영암,삼호,전남 영암군 삼호읍 난전리 1685-5,34.7746368,126.4184071,,0,0,
1652,repa,에스디해양조선,전남,영암,삼호,전남 영암군 삼호읍 나불리 337-9 대불산단내 시에프시빌딩 5층,34.7679526,126.4370374,,0,0,
1653,repa,푸른중공업,전남,영암,삼호,전남 영암군 삼호읍 난전리 1697-5,34.7636174,126.4244814,,0,0,
1654,repa,해원,전남,영암,삼호,전남 영암군 삼호읍 난전리 1689-13 대불산단내,34.7693811,126.4226771,,0,0,
1655,repa,노화FRP조선소,전남,완도,노화,전남완도군노화읍이포리790 ,34.1779826,126.564254,,0,0,
1656,repa,원다조선소,전남,완도,노화,전남 완도군 노화읍 이포리 24-1,34.1745915,126.585982,,0,0,
1657,repa,천지해건설,전남,완도,완도,전남 완도군 완도읍 가용리 1074-8,34.3192217,126.7433707,,0,0,
1658,repa,고려중공업,전남,진도,군내,전남 진도군 군내면 녹진리 1402,34.5803437,126.275109,,0,0,
1659,repa,신진조선소,전북,군산,금암,전북 군산시 금암동 292-19,35.9872354,126.7230156,,0,0,
1660,repa,우진기업,전북,군산,비응,전북 군산시 비응도동 7,35.9664452,126.5365993,,0,0,
1661,repa,삼원중공업,전북,군산,소룡,전북 군산시 소룡동 1646-4,35.9566818,126.5862524,,0,0,
1662,repa,연수조선,전북,군산,소룡,전북 군산시 소룡동 1019-7,35.9850495,126.6892412,,0,0,
1663,repa,티엔지중공업,전북,군산,소룡,전북 군산시 소룡동 597-1,35.9825326,126.6730657,,0,0,
1664,repa,한국해양기술(주),전북,군산,소룡,전북 군산시 소룡동?1637-6,35.9676262,126.736875,,0,0,
1665,repa,한원엔지니어링,전북,군산,소룡,전북 군산시 소룡동 1646-3,35.9571553,126.5862318,,0,0,
1666,repa,주원이엔시(주),전북,군산,오식,전북 군산시 오식도동?832-2,35.9676262,126.736875,,0,0,
1667,repa,서해조선,전북,군산,중동,전북 군산시 중동 271-2,35.9838286,126.7269025,,0,0,
1668,repa,제주조선,제주,제주,건입,제주제주시건입동1435번지 ,33.5190232,126.5287328,,0,0,
1669,repa,금강조선,충남,보령,오천,충남 보령시 오천면 영보리 350,36.4266586,126.5046776,,0,0,
1670,repa,에스에이치조선,충남,보령,주교,충남 보령시 주교면 송학리 583-6,36.3830411,126.505523,,0,0,
1671,repa,금강중공업,충남,서천,장항,충남서천군장항읍창선리243 ,36.0109673,126.6959712,,0,0,
1672,repa,세코중공업,충남,서천,장항,충남 서천군 장항읍 원수리 923-53,36.0070862,126.7038144,,0,0,
1673,repa,연수조선,충남,서천,장항,충남 서천군 장항읍 장암리 361-3번지,36.0097888,126.6623932,,0,0,
1674,repa,충남조선소,충남,서천,장항,충남 서천군 장항읍 원수리 317-4,36.0055387,126.7067014,,0,0,
1675,repa,군장조선,충남,서천,종천,충남서천군종천면석촌리424 ,36.1166708,126.6998783,,0,0,
1676,repa,플로텍,충남,아산,온양,충남 아산시 온양2동 145-51,36.7799972,127.0038095,,0,0,
1677,repa,광신조선소,충남,태안,군안,충남태안군안면읍창기리177-11 ,36.6072529,126.3489056,,0,0,
1678,repa,유니온스틸,충북,제천,의림,충북 제천시 의림동 36-3, 2층,37.1414694,128.2099326,,0,0,
1679,repa,웅진중공업,충북,청원,현도,충북 청원군 현도면 중삼리 322,36.5126487,127.4122296,,0,0,
1680,repa,조광공업사,경기,부천,오정,경기도 부천시 오정구 내동 168-1번지,37.5223033,126.7801196,,0,0,
1681,repa,진해해군기지정비창,경남,창원,진해,경상남도 창원시 진해구, 7-8년전 부산으로 이전,35.227927,128.6818088,,0,0,
1682,repa,동국제강,부산,남구,용호동,부산광역시 남구 용호동 용호로 ,35.1166519,129.1108923,,0,0,
1683,repa,금호산업,부산,사하구,구평동,부산광역시 사하구 구평동,35.081925,128.987775,,0,0,
1684,repa,현대정공,울산,,방어진,울산광역시 방어진,35.4849426,129.4291,,0,0,
1685,sb,녹봉조선,경남,거제시,사등면,경남 거제시 사등면 성포리 21-4,34.9213742,128.5305664,,0,0,
1686,sb,대우조선해양,경남,거제시,아주동,경남 거제시 아주동 1,34.8722114,128.6957017,,0,0,
1687,sb,삼성중공업,경남,거제시,장평동,경남 거제시 장평동 530,34.8998142,128.6024892,,0,0,
1688,sb,에스피피해양조선,경남,사천시,사남면,경남 사천시 사남면 초전리 1988,35.0520308,128.0413928,,0,0,
1689,sb,에스티엑스조선해양,경남,창원시,진해구,경남 창원시 진해구 원포동 100,35.109615,128.7160879,,0,0,
1690,sb,성동조선해양,경남,통영시,광도면,경남 통영시 광도면 황리 1609-2,34.9560717,128.4248693,,0,0,
1691,sb,에스피피조선,경남,통영시,광도면,경남 통영시 광도면 황리 1609-4,34.9581322,128.4266086,,0,0,
1692,sb,삼호조선,경남,통영시,도남동,경남 통영시 도남동 459-6,34.8321307,128.4238405,,0,0,
1693,sb,신아에스비,경남,통영시,도남동,경남 통영시 도남동 227,34.8291702,128.4270202,,0,0,
1694,sb,에스엘에스조선,경남,통영시,도남동,경남 통영시 도남동 227,34.8291702,128.4270202,,0,0,
1695,sb,대선조선(제3공장),부산,사하구,다대동,부산 사하구 다대동 1553,35.0567291,128.9897321,,0,0,
1696,sb,한진중공업(다대포 공장),부산,사하구,다대로,부산 사하구 가대로 605번길 66,35.1045772,128.974817,,0,0,
1697,sb,에스티엑스조선해양 (부산공장),부산,영도구,대평동,부산 영도구 대평동 1가 160,35.0902794,129.0333918,,0,0,
1698,sb,대선조선,부산,영도구,봉래동,부산 영도구 봉래동4가 12,35.0966327,129.0467424,,0,0,
1699,sb,한진중공업,부산,영도구,봉래동,부산 영도구 봉래동5가 29,35.0951022,129.0523239,,0,0,
1700,sb,진세조선,부산,영도구,청학1,부산 영도구 청학1동 330-100,35.1000224,129.0579391,,0,0,
1701,sb,세광중공업,울산,동구 ,방어동,울산 동구 방어동 175-1,35.4856291,129.4276391,,0,0,
1702,sb,씨앤중공업,전남,목포시,연산동,전남 목포시 연산동 1282,34.8245908,126.3803218,,0,0,
1703,sb,현대삼호중공업,전남,영암군,삼호읍,전남 영암군 삼호읍 용당리 1700,34.7380672,126.3857157,,0,0,
1704,sb,대한조선,전남,해남군,화원면,전남 해남군 화원면 구림리 887,34.7437075,126.3168752,,0,0,
1903,etc,KCC (금강),경기,수원시,서둔동,경기 수원시 서둔동 296-3, 수원역 뒷편,37.2651943,126.9977169,,1969,2004,수원역 앞 위치
1904,etc,KCC (금강),울산,울주군,언양읍,울산 울주군 언양읍 반송리,35.5492898,129.1442081,,1975,2007,
1905,etc,KCC (금강),울산,온양면,화산리,울산 온양면 화산리937,35.5396493,129.3112381,,1981,2007,
1906,etc,S&T브레이크,경남,창원시,의창구,경남 창원시 의창구 동읍 853-5,35.2778714,128.6859773,,1966,2008,
1907,etc,건설화학공업,부산,부산진,가야동,부산 부산진 가야동 588,35.1498932,129.0306975,Synthetic Resin for Paint/에나멜/페인트/락카/바니쉬/ 에나멜/페인트/락카/바니쉬/도료 가공,1952,2007,페인트분말흐름방지, 비산 염려 적음
1908,etc,건설화학공업,경기,시흥군,군포읍,경기 시흥군 군포읍 당정리284,37.436318,127.550802,,1952,2007,
1909,etc,건설화학공업,광주,광산구,장덕동,광주 광산구 장덕동 928-3,35.1979679,126.818191,,1994,2007,
1910,ffr,경동산업,대구,달성군,논공읍,대구 달성군 논공읍 103-4,35.732366,128.4680166,,1960,2007,
1911,ffr,경동산업,대구,달성군,논공읍,대구 달성군 논공읍 북리 1-144,35.7341362,128.4570558,,1960,2007,라이닝, 성형가공 혼면과 연마시 비산
1912,ffr,경안산업,경기,안산시,단원구,경기 안산시 단원구원시동 776-2 (반월공단 10블럭 31호)2,37.311715,126.8002663,,1998,2010,석면시멘트 판 제작(방화용)
1913,ffr,경안인슈테크사,경기,안산시,단원구,경기 안산시 단원구 초지동 652,37.2988975,126.7936449,,1998,2007,동일 회사로 추정
1914,ffr,경원석면,경기,안산시,단원구,경기 안산시 단원구 초지동 652,37.2988975,126.7936449,,1991,2007,동일 회사로 추정
1915,ffr,경한산업,경남,김해시,생림면,경남 김해시 생림면 도요리 590번지,35.3869016,128.845437,,1975,2007,방직 아닌 것으로 추정, 포를 제작보다는 사용
1916,fce,고려석면고무공업,경기,시흥시,안양읍,경기 시흥시 안양읍 안양리 679,37.380174,126.802938,,1991,2007,
1917,fce,고려시멘트 ,전남,장성군,장성읍,전남 장성군 장성읍 단광리524,35.2904563,126.7803655,,1988,2007,
1918,fce,고려시멘트 ,전남,광양시,태인동,전남 광양시 태인동1656-11,34.9389828,127.7573623,,1994,2007,
1919,fce,고려시멘트 ,광주,동구 ,광산동,광주 동구  광산동 23-1 ,35.1461147,126.9196509,,1996,2007,
1920,etc,고려아스베스트,부산,북구,화명동,부산시 북구 화명동,35.2327613,129.0137996,,1976,1988,
1921,etc,고려아연㈜,울산,울주군,온산읍,울산 울주군 온산읍 대정리,35.4302512,129.3470625,,1974,2007,1980, 아연 황산
1922,etc,고려화학 울산공장,울산,북구 ,염포동,울산 북구  염포동414,35.5290889,129.3945827,,1974,2007,
1923,etc,고려화학 울산공장,울산,북구 ,염포동,울산 북구  염포동 777,35.5268253,129.3991017,,1985,2007,선박 페인트, KCC 계열, 비산가능성 높음
1924,etc,고려화학공사,부산,중구 ,대창동,부산 중구  대창동 3가 22,35.1078381,129.0361136,경탄/ 활석,1991,2007,
1925,etc,광명금속표면처리실,대구,북구 ,노원동,대구 북구  노원동 3가 474-6,35.8952856,128.5588847,,1991,2007,시내쪽, 크게 영향을 준 것 같이는 않음
1926,etc,광성화학공업,경기,군포시,금정동,경기 군포시 금정동 139,37.3756269,126.9454374,,1991,2007,라이닝(패드), 자전거
1927,ffr,국제패킹산업,부산,사하구,구평동,부산 사하구 구평동 435-48,35.0728785,128.9850893,,1970,2007,석면 방직 제품을 이용한 각종 패킹을 제작, 초기에 사상 근처에 있었음 (B급), 라이닝은 아니다.공기 순환 열악, 공장과 주택가 인접, 밀집, 모니터링이 필요, 구평동 2층에 위치
1928,ffr,극동가스깻트,경기,이천군,백사면,경기 이천군 백사면 신대리 69,37.436318,127.550802,,1991,2007,쉬트( joint sheet packing: 고무와 석면을 혼합하여 joint 배관 연결부위에 사용), 혼면할때만 비산
1929,ffr,극동가스켓공업,인천,남동구,논현동,인천 남동구 논현동 남동공단 9B-8,37.4179691,126.7052818,,1975,2007,동일 회사로 추정
1930,etc,금강스레트공업,서울,영등포,양평동,서울 영등포구양평동,37.5386949,126.8885658,,1958,1973,
1931,etc,금강주강산기,경남,양산시,웅상읍,경남 양산시 웅상읍 ,35.3350484,129.0373456,,1991,2007,선박 ceiling 제품(석면섬유+라텍스로 선박 구석에 ceiling 처리)
1932,ffi,금배산업,부산,금정구,두구동,부산 금정구 두구동 960-2,35.3002882,129.1095383,석면섬유/석면쉬트,1988,1992,두구동이 마지막 이사처, 여러가지의 회사명 가짐, 부도로 여러 곳 이전
1933,etc,기아정기,경남,창원시,의창구,경남 창원시 의창구 동읍 858-8,35.2778714,128.6859773,,1945,2007,현대모비스, 카스코
1934,etc,나인,충북,영동군,용산면,충북 영동군 용산면 천작리 308,36.27561,127.805635,,1997,2004,금배산업이 충청도로 가서 타인 명의로 만든 회사, 석면紙 1t~10t의 두께(자동차에 납품)
1935,ffi,남경산업,부산,사하구,구평동,부산 사하구 구평동 산 111,35.088469,128.98693,섬유방직제품,1985,1996,구평에 가장 먼저 들어간 회사,동양에서 구입한 카드기를 가지고 간 회사
1936,etc,대동화학광석제분공장,인천,중구 ,신흥동,인천 중구  신흥동 1가 34,37.466329,126.632891,,1991,2007,
1937,etc,대성산업사,대구,북구 ,고성동,대구 북구  고성동 3가 129(대구 북구 침산 88-2),35.8828656,128.5818518,,1976,2009,추가:절연용으로 전기회사에 많이 들어가기도 헀다. 절연성 전기선, 사상의 기성전선(1980년대, 90년대) 농기구 라이닝
1938,etc,대세산업,경북,경산시,진량읍,경북 경산시 진량읍 평사 495-10,35.8739904,128.8162125,,1995,2007,방직을 조금 사용함. 클러치 패이싱etcing), 수동기어에 사용함
1939,etc,대양산업사,서울,금천구,독산동,서울 금천구 독산동 295-6,37.4713986,126.8955874,,1975,2004,
1940,ffr,대영산업,부산,북구,금곡동,부산시 북구 금곡동(금곡역과 호포역 사이에 위치),35.197185,128.990438,가스켓,1991,1992,
1941,etc,대영산업,경남,양산시,웅상면,경남 양산시 웅상면 소주 964,35.3350484,129.0373456,,1993,1994,
1942,etc,대영산업,경남,김해시,한림면,경남 김해시 한림면 장평리 372,35.32065,128.80225,,1994,2007,초기에 금곡(1991~92년에 금곡역, 호포역 사이), 웅상(93,94), 한림(2000년대 가까이)으로 이동, 2000중반에 중국에서 방직 제품을 들어와 각종 패킹제품을 생산함
1943,etc,대영산업사,부산,남구 ,용당동,부산 남구  용당동 128-2,35.1160831,129.0962748,천정재,1983,1989,동원, 용당세관 맞은 편에서 천장재 생산, 확장하여 합천 동원스레트로 이사함
1944,sc,대우조선,경남,거제시,장승포,경남 거제시 장승포읍아양동825,34.880457,128.621175,,1978,2007,
1945,etc,대일산업,부산,금정구,두구동,부산 금정구 두구동 960-1,35.3002293,129.109724,,1989,1995,금배산업의 개명 회사, 금배산업의 쉬트류 판매, 두구동에서 방직을 조금 하였음. 1995년 폐업.금배산업의 방직은 합동상사에 판매
1946,fce,대한양회 ,경북,문경시,신기동,경북 문경시 신기동 34,36.6381262,128.1779469,,1972,1973,판매상 같음
1947,ffr,대화브레이크,경기,안산시,목내동,경기 안산시 목내동 388-2,37.3146748,126.7783639,,1966,2004,브레이크
1948,etc,대흥물산,충북,옥천군,군서면,충북 옥천군 군서면 동평리 475-2,36.2747729,127.5289858,,1982,2000,부산경남을 제외한 유일한 방직공장
1949,ffr,덕신합성공사,경기,양주시,회천면,경기 양주시 회천면 덕계리 271-18,37.7851887,127.0460634,,1997,2004,섬유제품이 아닌 것 같다. 확인요. 경기도에는 주로 브레이크 라이닝
1950,ffr,덕양산업,울산,북구 ,효문동,울산 북구  효문동 효문공단,35.577792,129.361,,1978,1995,현대자동차 1차 벤더, 약10년 가까이 원료를 사서 아스팔트와 혼합하여 자동차 하체쉬트를 제작. 단열과 방청 효과. 90년 중반에 고화폐로 대체. 자동차 생산량에 비례하여 수요량 증가. 이외에 극동 오일, 보광산업(건설화학 계열), 유영에서 납품함.
1951,ffr,덕양산업,울산,중구 ,연암동,울산 중구  연암동945,35.56945,129.3327,,1977,2007,
1952,ffr,덕창기계,인천,남동구,논현동,인천 남동구 논현동 남동공단 712-12 (148B-5L),37.4057471,126.7293502,,1976,2006,
1953,ffr,덕창기업 A 제1공장,인천,남동구,논현동,인천 남동구 논현동 남동공단 2B-1L,37.4057471,126.7293502,,1991,1997,동일 회사로 추정
1954,ffr,덕창기업B,인천,북구 ,십정동,인천 북구  십정동 230,37.4560537,126.7051511,,1994,2007,
1955,ffi,동광기업,부산,사상구,감전동,부산 사상구 감전동 147-2 (산업도로 SK 주유소 옆),35.1557,128.9740942,석면포/ 백석면,1991,1995,
1956,ffr,동기브레이크,부산,사하구,신평동,부산 사하구 신평동 527,35.0873378,128.9724122,브레이크라이닝,1989,2007,동명라이닝 이사가 설립
1957,etc,동남금속,대구,북구 ,침산2,대구 북구  침산2동 126-13,35.8896248,128.5942078,,1997,2007,자동차 라이닝 제조
1958,ffr,동명라이닝,부산,부산진,부암동,부산 부산진 부암동 500(당감동 동양고무 근처)에 있다가 현재 구평동에 있음,35.1689211,129.0377325,브레이크,1985,1989,당초 주소는 당감동 동양고무 앞에 위피, 백사장님이 석면관련 암으로 추정됨(사망하심)
1959,etc,동문기업사,서울,도봉구,도봉1,서울 도봉구 도봉1동 599-13,37.6760428,127.0428884,,1991,2007,
1960,etc,동방실업,부산,사하구,장림동,부산 사하구 장림동 35 (다대포 넘어가는 언덕 중간쯤),35.0761676,128.9788945,,1970,1982,마산광섬의 전신은 마산유니온, 일본에 주로 수출
1961,etc,동부정밀화학,경기,안산시,단원구,경기 안산시 단원구 성곡 623-1,37.3154916,126.7471749,,1996,2004,미확인
1962,fce,동신산업사,경남,김해시,진례면,경남 김해시 진례면 송현 278-7,35.249051,128.748038,,1992,2007,써라이트를 퍼라이트로 변경, 북구 삼락동에서 이사(주로 삼락동에서 제조: 80~90년대 중반), 시멘트와 석면을 혼합하여 판매
1963,etc,동아공업,경기,시흥군,군자면,경기도시흥군 군자면원시리729-6,37.297212,126.7830578,,1969,2007,가스켓 제조
1964,ffr,동양가스켓,경기,안산시,원시동,경기 안산시 원시동 729-9,37.3080284,126.7886269,,1970,2005,브레이크가 아니고 쉬트
1965,ffr,동양단열,경기,안산시,원시동,경기 안산시 원시동 785-6,37.2989711,126.7859956,,1975,2007,건축자재상으로 추정
1966,fce,동양시멘트 ,강원,삼척군,삼척읍,강원 삼척군 삼척읍 사직리 114,37.860367,128.311526,,1955,2007,자재상으로 추정, 삼척공장 내에 슬레트공장이 있었음, 기계와 인부 모두 KCC로 넘겼음.
1967,fce,동양시멘트 ,전북,군산시,소용동,전북 군산시 소용동 공단A브럭,35.9676262,126.736875,,1955,2007,
1968,fce,동양시멘트 ,부산,서구 ,암남동,부산 서구  암남동 655,35.076328,129.0066002,,1984,2007,
1969,fce,동양시멘트 ,경남,양산시,양산읍,경남 양산시 양산읍 유산리190,35.3350484,129.0373456,,1987,2007,
1970,fce,동양시멘트 ,경남,양산시,소용동,경남 양산시 소용동25-4,35.3350484,129.0373456,,1992,2007,
1971,fce,동양시멘트 ,경남,양산시,양산읍,경남 양산시 양산읍 190 ,35.3350484,129.0373456,,1994,2007,
1972,ffr,동양아스베스트,부산,사상구,덕포동,부산 사상구 덕포동 373-9 / 기계 5개 있었음,35.1771632,128.9817058,섬유제품제조업/가스켓,1970,2007,사장: 김종일(제일화학 김진태 사장의 친구임, 아버지가 재일동포임)
1973,ffr,동양아스베스트제2공장,부산,북구 ,삼락동,부산 북구  삼락동 353-7,35.197185,128.990438,섬유제품제조업/ 화학제품/가스켓,1991,2007,가스켓 제조
1974,ffr,동양정밀가스켓,경기,안산시,단원구,경기 안산시 단원구 원시동 729-2 반월공단1B51L,37.3090876,126.7861554,,1970,2007,
1975,etc,동원,경남,의령군,가래면,경남 의령군 가래면 195-5,35.3222239,128.2616759,,1986,1989,방직은 아님. B급. 방직을 사서 패킹을 제조
1976,etc,동원금속,대구,서구 ,이현동,대구 서구  이현동 42-6,35.8766641,128.5348313,,1979,2007,대영이 이사가서 슬레이트 제조
1977,ffi,동화산업,부산,사상구,덕포2,부산 사상구 덕포2동 372-5 (운전시험장)/,35.178019,128.9824384,방직/ 센난,1970,2000,
1978,ffi,동화화학,부산,북구 ,덕포동,부산 북구  덕포동 372-2,35.197185,128.990438,석면방직공장/석면포직.테프,1976,2007,일본에 수출함
1979,etc,럭키화학,부산,동래구,온천동,부산 동래구 온천동,35.220085,129.080087,비닐공장 불순물에 석면 함유,1971,1973,
1980,ffi,마산광섬,부산,사상구,감전동,부산 사상구 감전동 146-10,35.1548899,128.9753997,방직,1982,1987,슬레이트는 대전에서 하고, 부산에서는 천장재, 텍스. 벽산은 부산에서 계속 석면을 사용함(창립후 2000년대 초까지 있었음). 제일슬레트가 한국슬레트, 벽산으로 바뀜(마산광섬은 한일석면, 동방실업, 동화산업의 기계를 들여와 사용하였음.)
1981,ffr,벽산,대전,중구 ,태평동,대전 중구  태평동 252,36.3310069,127.3998781,,1972,1996,프레스나 파워작동기에 들어가는 산업용 브레이크 라이닝, 1996년까지 운영되다가 익산으로 이전함.
1982,etc,벽산,부산,북구 ,감전동,부산 북구  감전동 957-1,35.197185,128.990438,슬레이트,1984,2004,베이스먼트: 석면시멘트 제품. 돈사와 축사의 바닥재로 사용함(보온), 건축 외장재로도 사용함. 1560톤은 상당히 축소된 것임. 금강이 7만톤, 대전과 음성을 합하여 4만톤 정도로 추정됨, 연간 사용량이 약 1,000t 이상으로 예산됨, 영도는 페인트공장일 것임.
1983,etc,벽산,경남,창원시,진해구,경남 창원시 진해구  장천동,35.1276,128.7116,,1977,2007,
1984,etc,벽산,전남,여수시,,전남 여수시,34.760425,127.662313,,1985,1986,
1985,etc,벽산,충남,음성군,대소면,충남 음성군 대소면 부윤리 252-3,36.617338,126.845397,,1996,2007,익산에 당초 공장 있었고, 대전 공장도 추후 이전함, 서일산업을 인수하여 운영됨, 연간 사용량은 1,500t으로 압출시멘트 생산함
1986,etc,벽산,전북,익산군,팔봉동,전북 익산군 팔봉동888,35.691015,127.236829,,1996,2007,
1987,etc,보승산업주식회사,서울,영등포, 여의,서울 영등포구 여의도동 44-21,37.5208136,126.9292922,,1976,1978,
1988,ffr,산도브레이크,부산,사하구,신평동,부산 사하구 신평동 527,35.0873378,128.9724122,브레이크라이닝,2000,2007,동일 회사로 추정
1989,ffr,산도브레이크공업,대구,달성군,논공읍,대구 달성군 논공읍 본리리 29-97,35.7355993,128.4698585,,1965,2007,
1990,ffr,산도산업,대구,달성군,논공읍,대구 달성군 논공읍 본리리 952-1,35.7323666,128.4680166,,1965,2007,
1991,ffr,삼성공업사,대구,북구 ,노원동,대구 북구  노원동3가61-1(구주소. 대구 북구  칠산1동 887),35.9001292,128.5670114,,1979,2009,
1992,etc,삼성코닝,경기,화성군,태안면,경기 화성군 태안면 신리 472,37.436318,127.550802,,1973,2007,
1993,ffr,삼성특수 브레이크,경기,파주시,교하면,경기 파주시 교하면 와동리 산 26-10,37.7225667,126.7209069,,1982,2006,
1994,ffr,삼손 퍼라이트,경북,경주시,강동,경북 경주시 강동,35.987785,129.273313,,1991,2005,프레스나 파워작동기에 들어가는 산업용 브레이크 라이닝
1995,ffr,삼신브레이크,경남,김해시,주촌면,경남 김해시 주촌면 천곡리 1083-2 우정시스템옆,35.2299647,128.8358852,,1976,2009,미확인, 짐바브웨나 JM에서 가져온 것으로 추정됨(사용량 비노출)
1996,etc,삼아화성,경북,포항시,청림동,경북 포항시 청림동 1-143 (청림단지),36.002104,129.4168701,,1974,2007,맨 마지막까지(2000년대 초) 방직을 한 회사.(건식) 주로 일본에 수출. 90년대 후반~2000년초 중국제품이 수백톤 제품으로 수입되어 옴. 습식 제조 방법. 석면함유율 높음
1997,etc,삼우산업,울산,울주군,상북면,울산 울주군 상북면 천전 140,35.590515,129.091325,,1985,2000,
1998,ffr,삼장물산,경남,김해시,생림면,경남 김해시 생림면 도요 산64,35.32815,128.849138,,1998,2007,선박용 실링 제조
1999,ffr,삼환태창산업,경남,김해시,안동 ,경남 김해시 안동 402-7,35.2352675,128.9108503,,1996,2007,3공단에도 있고 달성에도 있었다. 대구에 3~4군데 공장이 있었음.
2000,ffr,상신브레이크,대구,달성군,논공면,대구 달성군 논공면 북동 1-37,35.7746,128.43145,,1965,2004,클러치 페이싱 제조
2001,etc,서진산업,경기,군포시,금정동,경기 군포시 금정동 7,37.3713917,126.9448114,,1972,2007,
2002,etc,서진산업,경기,군포시,산본동,경기 군포시 산본동1026-5,37.3758354,126.942454,,1994,2007,
2003,etc,성은산업,경기,김포시,월곳면,경기 김포시 월곳면 갈산리 529-8,37.6152667,126.7156207,,1975,2007,방직은 아니고 방직제품을 사서 패킹류 등을 제작
2004,ffr,성진물산,부산,금정구,부곡동,부산 금정구 부곡동 225-4,35.2370649,129.0889461,,1988,1991,브레이크
2005,etc,성진실업,경기,김포시,양촌면,경기 김포시 양촌면 석모리 489,37.6625946,126.6468723,,1982,2007,성진물상과 동일
2006,ffi,성진화학,부산,사상구,괘법동,부산 사상구 괘법동 (가내수공업, 낙면을 많이 씀, 1991년 백남원교수님 작업환경측정 결과: 25 fibers/cc), 사상(르네시떼 부근) 에서 낙면사용,35.163765,128.987175,사상(르네시떼 부근)에서 낙면사용(1970년~1980년)/ 부곡동으로 이전(1980년~1988년)하여 석면섬유/ 패킹공장으로 가동/ ,1976,1980,성진물상과 동일, (- 가내수공공장이었음. - 연간 사용량: 50-60t - 금정구 두구동, 구서동 근처였음. - 1991년 작업장허가제도 도입되면서 백남원 교수님이 작업환경측정을 실시하였던 공장(작업환경측정결과 25 f/cc 검출됨). - 낙면 사용(세관과 얘기하여 컨터이너로 일본에서 낙면을 실어옴, 낙면을 사용하면 제품 가격이 낮아지지만 원료자체가 저질이고 먼지가 많이 발생함). - 1개 라인만 가동하였고, 석면판매함(낙면을 시장에 뿜칠재로 판매함). - 김해 화훼단지에도 낙면 판매함, 낙면을 섞으면 물이 잘 빠져서 화훼단지에서도 사용함. - 1975~1976년경에 하단 에덴공원에서 낙면을 털어서 낙엽이 하얗게 변할 정도였음.)
2007,ffi,성진화학공업사,부산,동래구,금사동,부산 동래구 금사동 85-13,35.205001,129.083625,석면포,1986,1988,
2008,etc,세기실업,경기,김포시,양촌면,경기 김포시 양촌면 유현리 130-12,37.647623,126.6066565,,1975,2006,기성전선과 동일 제품
2009,etc,승내사,경북,구미시,구포동,경북 구미시 구포동 623,36.1296806,128.411245,,1997,2007,잘못된 데이터로 추정됨
2010,fce,쌍용시멘트 ,대전,중구 ,태평동,대전 중구  태평동 태평초등학교 부근,36.326108,127.397063,,1962,1993,일제~해방 직후 용산에 위치, 한국스레트 전신. 아사노라는 회사는 일본의 석면시멘트 회사. 환자발생율 매우 높음
2011,fce,쌍용시멘트 ,울산,남구 ,매암동,울산 남구  매암동 469,35.5112478,129.3781501,,1992,2007,
2012,fce,쌍용시멘트 ,전남,광양시,태인동,전남 광양시 태인동1655-2,34.9384514,127.7634531,,1994,2007,
2013,etc,아산,경기,화성군,정남면,경기 화성군 정남면 오일리 367-3,37.436318,127.550802,,1996,2007,
2014,etc,아산,경기,안산시,성곡동,경기 안산시 성곡동675-1 ,37.3125252,126.7395621,,1991,2007,
2015,ffr,아주기계공업사,부산,진구 ,가야2,부산 진구  가야2동 129,35.1798159,129.0750222,브레이크라이닝제조,1993,2007,동일 회사로 추정
2016,ffr,아주화학기계공업사,부산,기장군,정관면,부산 기장군 정관면 용수리 1021-28,35.3292801,129.162465,브레이크라이닝제조,1990,2007,러시아 등에서 수입한 거으로 추정
2017,etc,알인택,충북,옥천군,동이면,충북 옥천군 동이면 새산리 1111-1,36.283867,127.620313,,1997,2007,
2018,etc,알인텍,충북,옥천군,옥천읍,충북 옥천군 옥천읍 마암리 153,36.2929258,127.5620201,,1997,2004,
2019,etc,영신화공,경남,김해시,주촌면,경남 김해시 주촌면,35.235785,128.830637,,1985,1993,
2020,etc,오성염직,서울,동대문,답십리,서울 동대문구답십리동 652-1,37.5717988,127.0516956,,1964,1972,근무자 확인: 1964~72
2021,etc,오엠코리아,경기,김포시,장기동,경기 김포시 장기동 85,37.6561344,126.6626317,,1975,2007,석면섬유가 아니고 라이닝 공장
2022,etc,용덕공업사,전북,진안읍,군하리,전북 진안읍 군하리,35.7859,127.4186,,1991,2007,방화문 제작시 문짝 안에 유리석면을 절단하여 끼워 제작함
2023,ffr,유니온 브레이크,부산,사하구,다대동,부산 사하구 다대동 1503-10,35.0709848,128.9561883,중장비 브레이크/ 선박 브레이크 등등...석면섬유,1981,2007,
2024,ffr,유니온 브레이크,부산, 서구,토성3,부산시 서구 토성3가 15-4,35.097932,129.0244125,크레인브레이크/ 원료공급처,1991,2007,
2025,ffr,유니온공업,부산,북구 ,학장동,부산 북구  학장동 275-23, 북구 주례동,35.197185,128.990438,브레이크/ 브레이크라이닝 제조,1972,1981,방직
2026,ffr,유니온아스베스트,경남,창원시,마산회,경남 창원시 마산회원구 양덕동 975-1,35.2133446,128.5894052,,1972,1981,덕양산업과 유사, 납품은 보광으로 함. 보광에서는 현차로 납품, 공장출입문이 사무실에 있었음, 사무실을 거쳐야 공장내부로 출입가능하며 마스크, 두건을 써야 내부 출입이 가능하였음, 이는 이미 위해성을 알고 있었을 가능성이 있음.
2027,etc,유영산업사,울산,울주군,온양읍,울산 울주군 온양읍 외광리 571-1,35.4350623,129.2379983,,2000,2007,이전
2028,etc,유진산업,대구,달서구,월성동,대구 달서구 월성동 587,35.827354,128.4983256,,1976,2007,미확인. JM등에서 납품 추정
2029,etc,유진산업,경북,고령군,다산면,경북 고령군 다산면 평리리 174-01층,35.825808,128.454287,,1985,2010,최초 위치
2030,etc,익성텍,충남,천안시,성거읍,충남 천안시 성거읍오목리 9,36.8151472,127.1138946,,2003,2006,정류자(애자)에 절연용으로 쓰임
2031,etc,일진정류자,경기,성남시,중원구,경기 성남시 중원구 상대원동64-4,37.4435462,127.1810242,,2002,2004,상대동일 가능성 있음
2032,etc,일진커뮤니테이터,경기,성남시,중원구,경기 성남시 중원구 상대원동 64-6,37.4435275,127.1795137,,1975,2006,
2033,etc,정풍물산(마산광섬),경남,진주시,삼평동,경남 진주시 삼평동 55-543,35.1803282,128.1076539,,1987,2007,연산동에서 이전, 방직, 쉬트
2034,etc,제국석면광업,충남,홍성군,광천읍,충남 홍성군 광천읍 상정리 13,36.522399,126.6216304,,1991,2007,
2035,ffi,제일 E&S,경남,양산시,유산동,경남 양산시 유산동 39-5 (양산공단 B1-3),35.3697836,129.0396743,,1983,2007,
2036,etc,제일스레트공업,부산,영도구,영선동,부산 영도구 영선동 3가,35.0918619,129.042858,,1952,1984,벽산으로 합병
2037,etc,제일합섬,경북,구미시,공단동,경북 구미시 공단동 287,36.094986,128.3652811,,1974,1991,피해자 근무:1974~75
2038,ffi,제일화학,부산,연제구,연산동,부산 연제구 연산동 525,35.1917932,129.0927296,방직/ 가스켓 등 (작업환경측정 이후 독일 렉스와 기술제휴/ 기계 도입/ 분진제거시설 도입/ 국소배기장치/ 기계마다 집진/ 국내법과 맞지 않아 철거함. 덕트로 바꿈. 인도네시아),1969,1990,제조사 아님. 단열보드를 사서 사용한 곳임(- 1969년 설립되어 청석면부터 시작하였고 돔보(일본)에 납품함, 2-3년 후에는 백석면으로 가동하였고 5개 라인으로 운영됨.- 1990년부터 양산으로 이전하여 제일 E&S로 상호 변경함.- 연간 사용량: 2,800t(방직과 가스켓 합한 사용량)- 독일의 렉스사와 기술 제휴하여 기계도입하였으며 분진제거시설(국소배기장치, 기계마다 집진시설 설치) 도입, 그러나 우리나라는 국소배기 허가하지 않아 국내법과 맞지 않았고 이에 시설을 철거하였음, 또한 이후에 기계는 인도네시아로 수출되었음.)
2039,etc,제철 세라믹,경북,포항시,장흥동,경북 포항시 장흥동 1829,35.9707449,129.3858622,,1987,2007,주공아파트 창문틀 제조
2040,etc,조선석면개발사,인천,남구,숭의동,인천시 남구 숭의동 373,37.4651568,126.6596858,,1991,2007,
2041,etc,㈜인슈로,경남,양산시,웅상면,경남 양산시 웅상면 덕계리 99-8번지 바로 옆건물,35.3350484,129.0373456,,1995,1997,
2042,etc,주일,충남,천안군,성거읍,충남 천안군 성거읍 오목리 9,36.617338,126.845397,,1970,2007,
2043,etc,중앙파우텍,인천,동구 ,송현동,인천 동구  송현동,37.475976,126.63735,,1990,1993,
2044,ffr,코렉스인더스트리,부산,기장군,정관면,부산 기장군 정관면 용수리 382-1,35.3409572,129.1778537,크레인용 브레이크 라이닝/ 클러치 패드(백석면),2007,2012,
2045,etc,태경기계화학 A,대구,북구,칠산1,대구시 북구 칠산1동 1006-1,35.8856854,128.5829515,,1975,2005,
2046,etc,태경기계화학공업사,경북,군위군,효령면,경북 군위군 효령면 장군리 3리,36.1257946,128.5785592,,1997,2009,
2047,etc,태광BK산업,충북,충주시,신니면,충북 충주시 신니면 모남리 산13,37.0048202,127.6786871,,1999,2007,이전
2048,etc,태성공업사,대구,북구,노원3,대구시 북구 노원3가 250,35.8856854,128.5829515,,1992,2007,이전
2049,etc,태성공업사,경북,성주 ,성산리,경북 성주  성산리 1447-16,35.906691,128.2890412,,1976,2007,전신
2050,ffr,태화기계칼파씰,부산,강서구,송정동,부산 강서구 송정동 1727-2 녹산단지88 B2L,35.0881564,128.8494826,가스켓/ 합성고무/ 석면방직 조금 운영,1978,2007,전신
2051,ffr,태화칼파씰 공업사,부산,북구 ,삼락동,부산 북구  삼락동 403-2,35.197185,128.990438,클러치 페이싱을 사서 사용함,1970,1978,석면방직이 아니고 클러치 페이싱을 사서 사용함
2052,ffr,평화발레오,대구,달서구,장동 ,대구 달서구 장동 성서공단 105B,35.840849,128.512387,,1988,2007,동일 회사로 추정
2053,ffr,평화클러치,대구,달서구,파호동,대구 달서구 파호동 205-2번지,35.8415714,128.4757736,,1970,2007,
2054,ffr,평화화성,대구,서구,중외동,대구시 서구 중외동 1055,35.871757,128.559175,,1991,2007,미확인
2055,etc,풍농,충남,부여군,장항읍,충남 부여군 장항읍 신창리 379,36.275658,126.909775,,1991,2007,비석면한다고 한 회사같음
2056,etc,하이팩,충남,음성군,삼성면,충남 음성군 삼성면 성곡리 산 42,36.617338,126.845397,,1991,2007,주일과 같은 종류의 회사
2057,etc,한건,충남,천안시,성거읍,충남 천안시 성거읍 오목리 9,36.8780155,127.1990193,,1970,2004,판매상으로 추정됨
2058,fce,한국고로시멘트,충남,홍성군,구항면,충남 홍성군 구항면 청광리 114,36.5665006,126.6340146,,1976,1999,쉬트제조회사
2059,fce,한국고로시멘트,경북,포항시,장흥동,경북 포항시 장흥동 90-1,35.9891107,129.3699265,,1983,2007,
2060,fce,한국고로시멘트 ,광주,북구,중흥1,광주시 북구 중흥1동 699-2,35.1643003,126.9099668,,1983,2007,
2061,etc,한국매스타이트,충북,청원군,북이면,충북 청원군 북이면 석성리   349-1,36.755252,127.5127903,,1998,2007,
2062,etc,한국메탈,충남,아산시,신창면,충남 아산시 신창면 남성리,36.7931,126.9522,,1991,2007,
2063,etc,한국배럴,충남,아산시,신창면,충남 아산시 신창면 남성리,36.7931,126.9522,,1980,1985,
2064,ffr,한국브레이크공업,경기,용인시,남사면,경기 용인시 남사면 북리 산 51-1,37.115765,127.150387,,1984,1992,아프리카산 수입. 내장재, 천장재
2065,ffr,한국브레이크공업,경기,시흥군,의왕읍,경기 시흥군 의왕읍 왕곡리 산41,37.436318,127.550802,,1969,1985,
2066,ffr,한국브레이크공업,경기,용인시,기흥면,경기 용인시 기흥면 신갈리 98-22,37.2410999,127.1775942,,1969,1984,
2067,etc,한국비엔알,전북,김제시,만경읍,전북 김제시 만경읍 몽산리 106-8,35.8604927,126.8134253,,2004,2006,
2068,etc,한국석유화학,전남,여수시,평려면,전남 여수시 평려면 851,34.760425,127.662313,,1997,2007,
2069,etc,한국스레트 공업,서울,용산구,한강로,서울 용산구 한강로 2가 2번지(용산역부근소재),37.5326754,126.9682823,,1958,2007,
2070,etc,한국쓰레트,전북,김제시,만경읍,전북 김제시 만경읍 몽산리 106-8,35.8604927,126.8134253,,2006,2007,석면 비닐 타일, 10년 가까이 제조
2071,etc,한국오리엔탈,경북,포항시,괴동동,경북 포항시 괴동동 777,35.9927009,129.3717113,,1970,1985,근로자 근무 확인: 1970~80
2072,etc,한국오리엔탈,경북,포항시,남구 ,경북 포항시 남구 호동56,35.9684489,129.3599456,,1982,2007,
2073,etc,한국코인,경기,안산시,목내동,경기 안산시 목내동 394-2,37.3103246,126.7778082,,1971,2007,나인과 연관있는 회사, 상호변경 또는 분리
2074,etc,한국특수절연,충북,옥천군,동이면,충북 옥천군 동이면 세산리 1111-1,36.2725637,127.6023317,,1997,2004,
2075,etc,한국포리마산업사,경남,김해시,구산동,경남 김해시 구산동 765-1,35.2748459,128.8652729,,1995,2007,
2076,etc,한국필아공업,경기,안성시,공도읍,경기 안성시 공도읍 진사리 349-2,36.9923102,127.1418952,,1996,2007,단열재
2077,etc,한국필아공업,경기,안성시,공도읍,경기 안성시 공도읍 진사리 371,36.9913388,127.1505454,,1998,2007,
2078,etc,한농포리마,경기,안산시,성곡동,경기 안산시 성곡동 623-1,37.3031211,126.798372,,1996,2007,삼우산업 관련회사, 습식으로 석면지 제조, 주남에서 고현(또는 반대로) 이전
2079,etc,한상,경남,김해시,한림면,경남 김해시 한림면 장방리 372,35.3191098,128.796385,,1997,2007,미확인
2080,ffi,한상산업,경남,양산시,웅상읍,경남 양산시 웅상읍 주남리 142-1,35.3350484,129.0373456,,1987,2007,동일 회사로 추정
2081,ffi,한상산업,울산,울주군,웅촌면,울산 울주군 웅촌면 고연리 1178-35,35.4415369,129.1622778,,1970,2006,
2082,ffi,한상산업,울산,울주군,상북면,울산 울주군 상북면 천전리 140,35.5694171,129.1041553,,1985,2000,한상기업은 판매상, 기업은 실을 사서 제조함. 맨 처음 위치
2083,ffi,한상석면/한상산업(울주군),부산,사하구,다대동,부산 사하구 다대동 산 109-1/ 한일석면: 사하구 하단동 에던공원(현 삼성자동차대리점위치),35.0694568,128.9829164,섬유제품(방직),1970,1994,맨 마지막 장소
2084,ffi,한성,경기,성남시,삼평동,경기 성남시 삼평동 312,37.4005848,127.1001866,,1991,2007,사용처(C급)
2085,etc,한양화학,전남,여수시,삼일읍,전남 여수시 삼일읍 평여동 851,34.760425,127.662313,,1969,1992,
2086,etc,한양화학,울산,남구,부곡동,울산  남구 부곡동 53,35.5109344,129.3423974,,1980,2007,
2087,ffr,한일브레이크,경기,김포군,김포읍,경기 김포군 김포읍 장기리 65 (장기리, 장길리?),37.436318,127.550802,,1975,2004,방직
2088,ffi,한일석면,부산,사하구,장림동,부산 사하구 장림동 415-2,35.0748616,128.9763436,석면섬유(방직/ 매우 작업환경 열악함. 덤핑위주라 나쁜 원재료를 사용. 낙면을 주로 사용함. 센난에서 오심. 동방실업으로 개명함.),1970,2000,
2089,ffr,한일화학,부산,사하구,신평동,부산 사하구 신평동 370-48,35.0884782,128.9658876,마모방지제,1982,2007,
2090,etc,한화석유화학,전남,여수시,평여동,전남 여수시 평여동 851,34.8142605,127.7230764,,1997,2007,
2091,etc,한화석유화학 A,전남,여수시,평여동,전남 여수시 평여동 287-9,34.8213159,127.6663331,,1997,2007,판매상, 삼우산업과 동일 주소, 인척관계임
2092,etc,합동상사,울산,울주군,상북면,울산 울주군 상북면 천전리 140,35.5694171,129.1041553,,1970,2000,
2093,ffr,해동브레이크,대구,북구 ,태전동,대구 북구  태전동 574-7,35.9174429,128.5513363,,1975,2000,
2094,ffr,해성브레이크,부산,사하구,신평동,부산 사하구 신평동 527,35.0873378,128.9724122,브레이크라이닝제조,1999,2007,
2095,etc,혁성,전남,순천시,주암면,전남 순천시 주암면 궁각리 483-1,35.0988231,127.2477108,,1975,2007,
2096,ffr,현대브레이크,경기,파주시,교하면,경기 파주시 교하면 와동리 ,37.7599478,126.7798239,,1982,2006,의왕에서 이사, 현재도 운영
2097,etc,현대석면공업사,서울,마포구,현석동,서울 마포구 현석동,37.5419,126.9345,,1968,1972,
2098,etc,현대석면공업사,서울,구로구,구로동,서울 구로구 구로동 (철도 기지창 자리),37.4930434,126.8757585,,1972,1974,
2099,ffr,홍성브레이크,경기,의왕시,오전동,경기 의왕시 오전동 128,37.3580613,126.9618754,,1975,2005,
2100,ffr,홍성브레이크,경기,평택시,포승읍,경기 평택시 포승읍 도곡리 1214,36.9815286,126.8475677,,2002,2007,
